#SUBNET,COUNTRY,STATE,CITY,ZIP
#BJK UPDATED 6-22-2022,,,,
#SOUTHERN MARKETS,,,,
24.96.209.0/24,US,US-GA,Augusta,30909
24.96.190.0/24,US,US-GA,Augusta,30904
24.96.191.0/24,US,US-GA,Augusta,30906
24.96.195.0/24,US,US-GA,Augusta,30906
24.96.196.0/24,US,US-GA,Evan,30809
75.76.218.192/27,US,US-GA,Grovetown,30813
24.214.21.0/24,US,US-GA,Grovetown,30813
24.236.119.0/24,US,US-GA,Grovetown,30813
24.214.113.0/24,US,US-AL,Auburn,36830
24.96.224.0/24,US,US-AL,Auburn,36830
96.27.0.0/24,US,US-AL,Auburn,36830
207.98.130.0/24,US,US-SC,Charleston,29405
24.42.255.0/25,US,US-SC,North Charleston,29406
207.98.131.0/24,US,US-SC,North Charleston,29406
207.98.132.0/24,US,US-SC,Charleston,29414
64.233.209.96/27,US,US-SC,Summerville,29464
64.233.251.128/28,US,US-SC,Summerville,29464
64.53.181.160/28,US,US-SC,Summerville,29464
207.98.133.0/24,US,US-SC,Summerville,29464
64.53.181.128/27,US,US-SC,Mount Pleasant,29464
64.53.181.192/27,US,US-SC,Mount Pleasant,29464
207.98.134.0/24,US,US-SC,Mount Pleasant,29464
64.233.208.0/25,US,US-SC,Charleston,29407
64.233.209.208/28,US,US-SC,Charleston,29407
64.233.209.224/27,US,US-SC,Charleston,29407
64.233.251.64/26,US,US-SC,Charleston,29407
64.53.181.64/26,US,US-SC,Charleston,29407
64.53.242.0/25,US,US-SC,Charleston,29407
207.98.135.0/24,US,US-SC,Charleston,29407
207.98.137.0/24,US,US-SC,Charleston,29412
24.42.143.0/24,US,US-GA,Columbus,31906
24.214.101.0/24,US,US-GA,Columbus,31906
207.98.228.32/30,US,US-GA,Columbus,31906
24.96.243.0/24,US,US-GA,Columbus,31904
24.214.238.0/24,US,US-GA,Columbus,31904
24.214.154.0/24,US,US-GA,Columbus,31909
24.96.174.0/24,US,US-AL,Madison,35758
24.96.142.0/24,US,US-AL,Huntsville,35802
24.96.145.0/24,US,US-AL,Meridianville,35759
24.96.88.0/24,US,US-AL,Huntsville,35805
24.96.89.0/24,US,US-AL,Huntsville,35805
24.42.223.0/24,US,US-AL,Huntsville,35805
69.73.39.0/24,US,US-TN,Knoxville,37932
69.73.67.0/24,US,US-TN,Knoxville,37932
69.73.87.0/24,US,US-TN,Knoxville,37912
69.73.88.0/24,US,US-TN,Knoxville,37912
24.42.214.0/24,US,US-AL,Montgomery,36107
24.96.8.0/24,US,US-AL,Montgomery,36107
24.42.189.0/25,US,US-AL,Montgomery,36109
24.42.163.0/24,US,US-AL,Montgomery,36117
24.42.164.0/24,US,US-AL,Montgomery,36117
67.149.28.0/24,US,US-AL,Montgomery,36117
24.42.195.0/24,US,US-AL,Montgomery,36108
143.59.200.0/26,US,US-AL,Montgomery,36108
24.42.189.128/25,US,US-AL,Prattville,36067
24.96.226.0/24,US,US-FL,Panama City Beach,32407
69.47.64.64/26,US,US-FL,Panama City Beach,32407
69.47.64.128/26,US,US-FL,Panama City Beach,32407
24.96.216.0/24,US,US-FL,Lynn Haven,32444
24.96.221.0/24,US,US-FL,Panama City,32401
24.42.139.0/24,US,US-FL,Panama City,32401
143.59.80.0/24,US,US-FL,Panama City,32401
24.96.225.0/24,US,US-FL,Panama City,32404
207.98.208.0/24,US,US-FL,Clearwater,33756
69.73.58.0/24,US,US-FL,Palm Harbor,34684
207.98.143.0/24,US,US-FL,Largo,33778
24.96.111.0/24,US,US-FL,North Clearwater,33762
24.96.97.0/24,US,US-FL,Saint Petersburg,33711
96.27.104.64/26,US,US-FL,Saint Petersburg,33711
24.214.50.0/24,US,US-GA,Lanett,36863
24.214.128.0/24,US,US-GA,Lanett,36863
69.73.15.0/24,US,US-GA,Columbus,31904
24.214.12.0/24,US,US-GA,Columbus,31909
24.96.176.0/24,US,US-AL,Madison,35758
216.186.189.64/26,US,US-AL,Madison,35758
24.96.187.0/24,US,US-AL,Madison,35758
24.96.189.0/24,US,US-AL,Madison,35758
207.98.180.0/23,US,US-AL,Dothan,36312
143.59.121.0/24,US,US-AL,Dothan,36312
23.28.158.0/24,US,US-AL,Dothan,36312
96.27.118.0/24,US,US-AL,Dothan,36312
216.47.193.0/24,US,US-AL,Dothan,36312
216.47.194.0/24,US,US-AL,Dothan,36312
216.47.195.0/24,US,US-AL,Dothan,36312
216.47.196.0/24,US,US-AL,Dothan,36312
216.47.197.0/24,US,US-AL,Dothan,36312
216.47.198.0/24,US,US-AL,Dothan,36312
216.47.207.0/24,US,US-AL,Dothan,36312
216.47.221.0/24,US,US-AL,Dothan,36312
207.98.237.0/24,US,US-AL,Dothan,36312
64.233.230.0/23,US,US-AL,Dothan,36312
69.14.216.0/22,US,US-AL,Dothan,36312
24.192.122.0/24,US,US-AL,Dothan,36312
50.4.102.0/24,US,US-AL,Dothan,36312
143.59.84.0/24,US,US-AL,Dothan,36312
50.4.230.0/24,US,US-AL,Dothan,36312
24.35.16.0/22,US,US-AL,Dothan,36312
67.149.12.0/22,US,US-AL,Dothan,36312
143.59.248.0/22,US,US-AL,Dothan,36312
24.214.68.0/24,US,US-AL,Dothan,36312
96.27.66.128/25,US,US-AL,Dothan,36312
75.76.126.192/27,US,US-AL,Dothan,36312
216.186.247.128/26,US,US-FL,Saint Petersburg,33711
143.59.144.0/20,US,US-GA,Newnan,30263
50.4.58.0/23,US,US-GA,Newnan,30263
72.15.64.0/22,US,US-GA,Newnan,30263
66.216.196.0/24,US,US-GA,Newnan,30263
143.59.32.0/19,US,US-GA,Newnan,30263
66.216.197.0/24,US,US-GA,Newnan,30263
72.15.80.0/21,US,US-GA,Newnan,30263
72.15.88.0/21,US,US-GA,Newnan,30263
72.15.123.0/24,US,US-GA,Newnan,30263
96.27.184.0/26,US,US-GA,Newnan,30263
76.73.128.0/25,US,US-GA,Newnan,30263
76.73.128.128/25,US,US-GA,Newnan,30263
23.28.124.0/22,US,US-GA,Augusta,30909
24.42.201.0/24,US,US-GA,Augusta,30909
24.42.204.0/24,US,US-GA,Augusta,30909
67.149.120.0/21,US,US-GA,Augusta,30909
24.214.51.0/24,US,US-GA,Augusta,30909
24.214.106.0/24,US,US-GA,Augusta,30909
69.14.210.0/24,US,US-GA,Augusta,30909
67.149.206.0/24,US,US-GA,Augusta,30909
24.236.98.0/24,US,US-GA,Augusta,30909
69.1.2.0/24,US,US-GA,Augusta,30909
69.1.26.0/24,US,US-GA,Augusta,30909
69.73.51.0/24,US,US-GA,Augusta,30909
69.73.104.0/24,US,US-GA,Augusta,30909
207.98.192.0/22,US,US-GA,Augusta,30909
24.214.40.64/26,US,US-GA,Augusta,30909
143.59.115.128/25,US,US-GA,Augusta,30909
216.186.153.0/24,US,US-GA,Augusta,30904
24.35.5.0/24,US,US-GA,Augusta,30904
24.35.13.0/24,US,US-GA,Augusta,30904
24.42.160.0/24,US,US-GA,Augusta,30904
24.236.104.0/24,US,US-GA,Augusta,30904
24.236.105.0/24,US,US-GA,Augusta,30904
24.236.106.0/24,US,US-GA,Augusta,30904
76.73.130.0/24,US,US-GA,Augusta,30904
24.42.152.0/24,US,US-GA,Augusta,30904
24.42.153.0/24,US,US-GA,Augusta,30904
24.42.155.0/24,US,US-GA,Augusta,30904
24.42.157.0/24,US,US-GA,Augusta,30904
24.214.85.0/24,US,US-GA,Augusta,30904
24.214.111.0/24,US,US-GA,Augusta,30904
24.236.103.0/24,US,US-GA,Augusta,30904
24.214.116.0/24,US,US-GA,Augusta,30906
24.35.4.0/24,US,US-GA,Augusta,30906
69.1.38.0/24,US,US-GA,Augusta,30906
24.35.23.0/24,US,US-GA,Augusta,30906
69.1.62.0/24,US,US-GA,Augusta,30906
96.27.186.0/24,US,US-GA,Augusta,30906
24.214.221.0/24,US,US-GA,Augusta,30906
50.4.60.0/24,US,US-GA,Augusta,30906
24.96.208.0/24,US,US-GA,Augusta,30906
50.4.36.0/24,US,US-GA,Augusta,30906
69.73.3.0/24,US,US-GA,Augusta,30906
143.59.137.128/25,US,US-GA,Augusta,30906
216.186.159.0/24,US,US-GA,Augusta,30906
74.199.78.0/24,US,US-GA,Evan,30809
75.76.144.0/24,US,US-GA,Evan,30809
24.42.128.0/24,US,US-GA,Evan,30809
24.214.14.0/24,US,US-GA,Evan,30809
24.214.45.0/24,US,US-GA,Evan,30809
24.214.62.0/24,US,US-GA,Evan,30809
24.214.72.0/24,US,US-GA,Evan,30809
24.214.117.0/24,US,US-GA,Evan,30809
24.214.132.0/24,US,US-GA,Evan,30809
50.4.61.0/24,US,US-GA,Evan,30809
24.42.129.0/24,US,US-GA,Evan,30809
24.236.81.0/24,US,US-GA,Evan,30809
24.236.99.0/24,US,US-GA,Evan,30809
24.236.100.0/24,US,US-GA,Evan,30809
24.236.101.0/24,US,US-GA,Evan,30809
69.1.39.0/24,US,US-GA,Evan,30809
69.1.59.0/24,US,US-GA,Evan,30809
50.4.83.0/24,US,US-GA,Evan,30809
23.28.204.0/23,US,US-GA,Evan,30809
24.192.230.0/23,US,US-GA,Evan,30809
75.76.153.0/24,US,US-GA,Evan,30809
24.42.177.0/24,US,US-GA,Evan,30809
75.76.148.0/24,US,US-GA,Evan,30809
74.199.40.0/24,US,US-GA,Evan,30809
24.42.178.0/24,US,US-GA,Evan,30809
216.186.139.0/24,US,US-GA,Evan,30809
24.42.180.0/24,US,US-GA,Evan,30809
24.214.75.0/24,US,US-GA,Grovetown,30813
24.214.77.0/24,US,US-GA,Grovetown,30813
24.214.79.0/24,US,US-GA,Grovetown,30813
24.214.83.0/24,US,US-GA,Grovetown,30813
24.214.90.0/24,US,US-GA,Grovetown,30813
24.214.92.0/24,US,US-GA,Grovetown,30813
24.214.94.0/24,US,US-GA,Grovetown,30813
24.214.100.0/24,US,US-GA,Grovetown,30813
24.214.102.0/24,US,US-GA,Grovetown,30813
24.214.103.0/24,US,US-GA,Grovetown,30813
24.214.105.0/24,US,US-GA,Grovetown,30813
24.214.109.0/24,US,US-GA,Grovetown,30813
24.214.110.0/24,US,US-GA,Grovetown,30813
24.214.112.0/24,US,US-GA,Grovetown,30813
24.214.114.0/24,US,US-GA,Grovetown,30813
24.214.118.0/24,US,US-GA,Grovetown,30813
24.214.120.0/22,US,US-GA,Grovetown,30813
24.214.136.0/24,US,US-GA,Grovetown,30813
24.214.139.0/24,US,US-GA,Grovetown,30813
23.28.199.0/24,US,US-GA,Grovetown,30813
69.14.206.0/23,US,US-GA,Grovetown,30813
24.35.22.0/24,US,US-GA,Grovetown,30813
216.186.155.0/24,US,US-GA,Grovetown,30813
143.59.94.0/24,US,US-GA,Grovetown,30813
74.199.60.0/24,US,US-GA,Grovetown,30813
143.59.74.0/24,US,US-GA,Grovetown,30813
24.96.135.0/24,US,US-AL,Auburn,36830
24.96.150.0/24,US,US-AL,Auburn,36830
24.96.17.0/24,US,US-AL,Auburn,36830
24.96.47.0/24,US,US-AL,Auburn,36830
50.4.32.0/24,US,US-AL,Auburn,36830
72.15.116.0/22,US,US-AL,Auburn,36830
72.15.124.0/22,US,US-AL,Auburn,36830
24.96.103.0/24,US,US-AL,Auburn,36830
24.96.227.0/24,US,US-AL,Auburn,36830
69.14.202.0/23,US,US-SC,Charleston,29405
50.4.34.0/24,US,US-SC,Charleston,29405
50.4.144.0/22,US,US-SC,Charleston,29405
207.98.159.0/24,US,US-SC,Charleston,29405
50.4.148.0/22,US,US-SC,Charleston,29405
50.4.62.0/24,US,US-SC,North Charleston,29406
50.4.63.0/24,US,US-SC,North Charleston,29406
143.59.186.0/24,US,US-SC,North Charleston,29406
23.28.221.0/24,US,US-SC,North Charleston,29406
24.192.72.0/21,US,US-SC,North Charleston,29406
69.14.241.0/24,US,US-SC,North Charleston,29406
69.14.90.0/24,US,US-SC,North Charleston,29406
50.4.125.0/24,US,US-SC,North Charleston,29406
50.4.126.0/24,US,US-SC,North Charleston,29406
50.4.180.0/24,US,US-SC,North Charleston,29406
24.236.70.0/23,US,US-SC,Charleston,29414
50.4.181.0/24,US,US-SC,Charleston,29414
24.236.91.0/24,US,US-SC,Charleston,29414
24.236.92.0/24,US,US-SC,Charleston,29414
24.236.116.0/23,US,US-SC,Charleston,29414
24.236.126.0/23,US,US-SC,Charleston,29414
69.73.14.128/26,US,US-SC,Charleston,29414
76.73.137.0/24,US,US-SC,Summerville,29464
76.73.138.0/24,US,US-SC,Summerville,29464
76.73.143.0/24,US,US-SC,Summerville,29464
76.73.148.0/25,US,US-SC,Summerville,29464
76.73.151.0/24,US,US-SC,Summerville,29464
76.73.184.0/24,US,US-SC,Summerville,29464
74.199.26.0/23,US,US-SC,Summerville,29464
23.28.224.0/22,US,US-SC,Summerville,29464
143.59.96.0/22,US,US-SC,Summerville,29464
69.1.4.0/24,US,US-SC,Mount Pleasant,29464
69.1.6.0/24,US,US-SC,Mount Pleasant,29464
69.1.8.0/24,US,US-SC,Mount Pleasant,29464
69.1.22.0/23,US,US-SC,Mount Pleasant,29464
69.1.24.0/24,US,US-SC,Mount Pleasant,29464
69.1.32.0/24,US,US-SC,Mount Pleasant,29464
69.1.46.0/24,US,US-SC,Mount Pleasant,29464
69.1.51.0/24,US,US-SC,Mount Pleasant,29464
69.73.53.0/24,US,US-SC,Mount Pleasant,29464
69.73.14.0/26,US,US-SC,Mount Pleasant,29464
24.96.133.0/24,US,US-SC,Charleston,29407
24.96.233.0/24,US,US-SC,Charleston,29407
24.192.88.0/21,US,US-SC,Charleston,29407
143.59.135.0/24,US,US-SC,Charleston,29407
96.27.170.0/23,US,US-SC,Charleston,29407
50.4.103.0/24,US,US-SC,Charleston,29412
50.4.135.0/24,US,US-SC,Charleston,29412
50.4.18.0/24,US,US-SC,Charleston,29412
207.98.252.0/22,US,US-SC,Charleston,29412
50.4.123.0/24,US,US-SC,Charleston,29412
24.214.145.0/24,US,US-GA,Columbus,31906
24.214.35.0/24,US,US-GA,Columbus,31906
24.214.26.0/24,US,US-GA,Columbus,31906
24.214.81.0/24,US,US-GA,Columbus,31906
24.214.146.0/24,US,US-GA,Columbus,31906
24.214.17.0/24,US,US-GA,Columbus,31906
24.214.9.0/24,US,US-GA,Columbus,31906
69.73.9.0/24,US,US-GA,Columbus,31906
69.73.10.0/24,US,US-GA,Columbus,31906
69.73.12.0/24,US,US-GA,Columbus,31906
69.1.11.0/24,US,US-GA,Columbus,31906
69.73.13.0/24,US,US-GA,Columbus,31906
24.96.237.0/24,US,US-GA,Columbus,31906
24.96.238.0/24,US,US-GA,Columbus,31906
24.96.239.0/24,US,US-GA,Columbus,31906
24.96.247.0/24,US,US-GA,Columbus,31906
76.73.186.0/24,US,US-GA,Columbus,31906
76.73.187.0/24,US,US-GA,Columbus,31906
76.73.188.0/24,US,US-GA,Columbus,31906
76.73.190.0/24,US,US-GA,Columbus,31906
24.214.242.0/24,US,US-GA,Columbus,31906
24.96.82.0/24,US,US-GA,Columbus,31906
24.96.86.0/24,US,US-GA,Columbus,31906
24.96.91.0/24,US,US-GA,Columbus,31906
24.96.92.0/24,US,US-GA,Columbus,31906
24.96.95.0/24,US,US-GA,Columbus,31906
24.96.129.0/24,US,US-GA,Columbus,31906
24.96.131.0/24,US,US-GA,Columbus,31906
24.96.134.0/24,US,US-GA,Columbus,31906
24.214.140.0/24,US,US-GA,Columbus,31906
24.236.66.0/24,US,US-GA,Columbus,31906
24.96.136.0/24,US,US-GA,Columbus,31906
24.96.143.0/24,US,US-GA,Columbus,31906
143.59.171.0/24,US,US-GA,Columbus,31906
23.28.172.0/24,US,US-GA,Columbus,31906
24.35.61.0/24,US,US-GA,Columbus,31906
23.28.196.0/24,US,US-GA,Columbus,31906
69.73.71.0/24,US,US-GA,Columbus,31906
23.28.188.0/23,US,US-GA,Columbus,31906
207.98.140.0/24,US,US-GA,Columbus,31906
24.96.65.0/24,US,US-GA,Columbus,31906
143.59.211.0/24,US,US-GA,Columbus,31906
143.59.213.0/24,US,US-GA,Columbus,31906
24.96.26.0/24,US,US-GA,Columbus,31906
69.73.63.0/24,US,US-GA,Columbus,31906
23.28.161.0/24,US,US-GA,Columbus,31906
24.96.147.0/24,US,US-GA,Columbus,31906
24.96.144.0/24,US,US-GA,Columbus,31906
143.59.101.0/24,US,US-GA,Columbus,31906
143.59.235.0/24,US,US-GA,Columbus,31906
23.28.222.0/24,US,US-GA,Columbus,31906
23.28.134.0/23,US,US-GA,Columbus,31904
24.214.32.0/24,US,US-GA,Columbus,31904
143.59.116.0/24,US,US-GA,Columbus,31904
76.73.131.0/24,US,US-GA,Columbus,31904
69.1.27.0/24,US,US-GA,Columbus,31904
24.214.36.0/24,US,US-GA,Columbus,31904
24.214.80.0/24,US,US-GA,Columbus,31904
24.96.188.0/24,US,US-GA,Columbus,31904
69.1.3.0/24,US,US-GA,Columbus,31904
69.73.109.0/24,US,US-GA,Columbus,31904
69.1.28.0/24,US,US-GA,Columbus,31904
23.28.136.0/22,US,US-GA,Columbus,31904
23.28.165.0/24,US,US-GA,Columbus,31904
50.4.232.0/24,US,US-GA,Columbus,31904
50.4.39.0/24,US,US-GA,Columbus,31904
143.59.136.0/24,US,US-GA,Columbus,31904
50.4.224.0/24,US,US-GA,Columbus,31904
23.28.173.0/24,US,US-GA,Columbus,31904
23.28.197.0/24,US,US-GA,Columbus,31904
50.4.37.0/24,US,US-GA,Columbus,31904
24.214.243.0/24,US,US-GA,Columbus,31904
69.73.102.0/24,US,US-GA,Columbus,31904
24.96.99.0/24,US,US-GA,Columbus,31904
24.214.93.0/24,US,US-GA,Columbus,31904
24.214.40.0/24,US,US-GA,Columbus,31904
143.59.118.0/24,US,US-GA,Columbus,31904
143.59.120.0/24,US,US-GA,Columbus,31904
143.59.122.0/24,US,US-GA,Columbus,31904
64.233.210.0/23,US,US-GA,Columbus,31904
143.59.126.0/24,US,US-GA,Columbus,31904
24.214.138.0/24,US,US-GA,Columbus,31909
24.214.37.0/24,US,US-GA,Columbus,31909
24.214.108.0/24,US,US-GA,Columbus,31909
69.73.55.0/24,US,US-GA,Columbus,31909
24.214.33.0/24,US,US-GA,Columbus,31909
24.214.141.0/24,US,US-GA,Columbus,31909
24.214.143.0/24,US,US-GA,Columbus,31909
24.214.252.0/24,US,US-GA,Columbus,31909
24.96.213.0/24,US,US-GA,Columbus,31909
50.4.35.0/24,US,US-GA,Columbus,31909
24.214.19.0/24,US,US-GA,Columbus,31909
24.214.28.0/24,US,US-GA,Columbus,31909
143.59.172.0/24,US,US-GA,Columbus,31909
76.73.183.0/24,US,US-GA,Columbus,31909
76.73.189.0/24,US,US-GA,Columbus,31909
143.59.173.0/24,US,US-GA,Columbus,31909
50.4.48.0/24,US,US-GA,Columbus,31909
69.1.37.0/24,US,US-GA,Columbus,31909
24.42.202.0/24,US,US-GA,Columbus,31909
24.42.203.0/24,US,US-GA,Columbus,31909
50.4.41.0/24,US,US-GA,Columbus,31909
24.96.109.0/24,US,US-GA,Columbus,31909
24.96.121.0/24,US,US-GA,Columbus,31909
143.59.209.0/24,US,US-GA,Columbus,31909
76.73.193.0/24,US,US-GA,Columbus,31909
143.59.204.0/24,US,US-GA,Columbus,31909
24.192.28.0/23,US,US-GA,Columbus,31909
24.214.87.0/24,US,US-AL,Madison,35758
24.96.4.0/23,US,US-AL,Madison,35758
24.96.62.0/23,US,US-AL,Madison,35758
24.96.72.0/22,US,US-AL,Madison,35758
69.1.16.0/23,US,US-AL,Madison,35758
69.1.20.0/24,US,US-AL,Madison,35758
69.1.25.0/24,US,US-AL,Madison,35758
69.1.41.0/24,US,US-AL,Madison,35758
69.1.52.0/24,US,US-AL,Madison,35758
69.1.54.0/24,US,US-AL,Madison,35758
69.1.63.0/24,US,US-AL,Madison,35758
69.73.22.0/24,US,US-AL,Madison,35758
69.73.34.0/24,US,US-AL,Madison,35758
69.73.37.0/24,US,US-AL,Madison,35758
69.73.60.0/23,US,US-AL,Madison,35758
69.73.69.0/24,US,US-AL,Madison,35758
69.73.82.0/23,US,US-AL,Madison,35758
69.73.84.0/23,US,US-AL,Madison,35758
69.73.95.0/24,US,US-AL,Madison,35758
69.73.97.0/24,US,US-AL,Madison,35758
69.73.103.0/24,US,US-AL,Madison,35758
143.59.168.0/24,US,US-AL,Huntsville,35802
24.214.119.0/24,US,US-AL,Huntsville,35802
24.35.49.0/24,US,US-AL,Huntsville,35802
67.149.227.0/24,US,US-AL,Huntsville,35802
24.35.50.0/24,US,US-AL,Huntsville,35802
24.35.60.0/24,US,US-AL,Huntsville,35802
50.4.225.0/24,US,US-AL,Huntsville,35802
74.199.116.0/22,US,US-AL,Huntsville,35802
143.59.165.0/24,US,US-AL,Huntsville,35802
216.186.150.0/23,US,US-AL,Huntsville,35802
23.28.234.0/23,US,US-AL,Huntsville,35802
76.73.156.0/23,US,US-AL,Meridianville,35759
76.73.161.0/24,US,US-AL,Meridianville,35759
76.73.162.0/24,US,US-AL,Meridianville,35759
76.73.173.0/24,US,US-AL,Meridianville,35759
76.73.174.0/23,US,US-AL,Meridianville,35759
69.14.8.0/23,US,US-AL,Meridianville,35759
207.98.148.0/24,US,US-AL,Meridianville,35759
50.4.92.0/22,US,US-AL,Huntsville,35805
50.4.228.0/24,US,US-AL,Huntsville,35805
143.59.170.0/24,US,US-AL,Huntsville,35805
207.98.141.0/24,US,US-AL,Huntsville,35805
23.28.194.0/24,US,US-AL,Huntsville,35805
50.4.226.0/23,US,US-AL,Huntsville,35805
24.192.96.0/22,US,US-AL,Huntsville,35805
24.192.100.0/22,US,US-AL,Huntsville,35805
50.4.136.0/22,US,US-AL,Huntsville,35805
50.4.140.0/22,US,US-AL,Huntsville,35805
24.214.27.0/24,US,US-TN,Knoxville,37932
24.214.41.0/24,US,US-TN,Knoxville,37932
50.4.229.0/24,US,US-TN,Knoxville,37932
50.4.231.0/24,US,US-TN,Knoxville,37932
69.1.58.0/24,US,US-TN,Knoxville,37932
24.214.250.0/24,US,US-TN,Knoxville,37932
23.28.220.0/24,US,US-TN,Knoxville,37932
143.59.113.0/24,US,US-TN,Knoxville,37932
69.14.212.0/24,US,US-TN,Knoxville,37932
69.73.113.0/24,US,US-TN,Knoxville,37932
69.73.114.0/24,US,US-TN,Knoxville,37932
69.73.115.0/24,US,US-TN,Knoxville,37932
207.98.234.0/24,US,US-TN,Knoxville,37932
207.98.158.0/24,US,US-TN,Knoxville,37932
50.4.40.0/24,US,US-TN,Knoxville,37932
69.1.48.0/24,US,US-TN,Knoxville,37932
50.4.47.0/24,US,US-TN,Knoxville,37932
69.1.43.0/24,US,US-TN,Knoxville,37932
69.1.50.0/24,US,US-TN,Knoxville,37932
24.214.129.0/24,US,US-TN,Knoxville,37932
24.214.130.0/24,US,US-TN,Knoxville,37932
143.59.105.192/26,US,US-TN,Knoxville,37932
216.186.137.0/24,US,US-TN,Knoxville,37932
24.192.61.128/26,US,US-TN,Knoxville,37932
216.186.133.0/24,US,US-TN,Knoxville,37932
216.186.156.0/24,US,US-TN,Knoxville,37932
23.28.250.0/24,US,US-TN,Knoxville,37912
69.73.47.0/24,US,US-TN,Knoxville,37912
69.1.47.0/24,US,US-TN,Knoxville,37912
69.73.57.0/24,US,US-TN,Knoxville,37912
24.192.32.0/21,US,US-TN,Knoxville,37912
143.59.106.0/24,US,US-TN,Knoxville,37912
50.4.51.0/24,US,US-TN,Knoxville,37912
76.73.176.0/24,US,US-TN,Knoxville,37912
50.4.55.0/24,US,US-TN,Knoxville,37912
76.73.144.0/24,US,US-TN,Knoxville,37912
69.73.86.0/24,US,US-TN,Knoxville,37912
50.4.50.0/24,US,US-TN,Knoxville,37912
67.149.29.0/24,US,US-TN,Knoxville,37912
67.149.193.0/24,US,US-AL,Montgomery,36107
69.1.60.0/24,US,US-AL,Montgomery,36107
24.214.99.0/24,US,US-AL,Montgomery,36107
24.236.67.0/24,US,US-AL,Montgomery,36107
24.42.161.0/24,US,US-AL,Montgomery,36107
67.149.207.0/24,US,US-AL,Montgomery,36107
75.76.135.0/24,US,US-AL,Montgomery,36107
74.199.79.0/24,US,US-AL,Montgomery,36107
69.1.1.0/24,US,US-AL,Montgomery,36107
69.1.9.0/24,US,US-AL,Montgomery,36107
24.214.53.0/24,US,US-AL,Montgomery,36107
69.1.10.0/24,US,US-AL,Montgomery,36107
24.236.124.0/24,US,US-AL,Montgomery,36107
24.236.125.0/24,US,US-AL,Montgomery,36107
24.192.21.0/24,US,US-AL,Montgomery,36107
69.1.12.0/24,US,US-AL,Montgomery,36107
69.1.34.0/24,US,US-AL,Montgomery,36107
96.27.220.0/24,US,US-AL,Montgomery,36107
24.214.249.0/24,US,US-AL,Montgomery,36107
24.236.64.0/24,US,US-AL,Montgomery,36107
143.59.119.0/24,US,US-AL,Montgomery,36109
24.214.65.0/24,US,US-AL,Montgomery,36109
76.73.179.0/24,US,US-AL,Montgomery,36109
24.42.145.0/24,US,US-AL,Montgomery,36109
24.42.146.0/24,US,US-AL,Montgomery,36109
24.214.78.0/24,US,US-AL,Montgomery,36109
24.214.98.0/24,US,US-AL,Montgomery,36109
69.73.27.0/24,US,US-AL,Montgomery,36109
69.73.28.0/24,US,US-AL,Montgomery,36109
69.73.29.0/24,US,US-AL,Montgomery,36109
76.73.177.0/24,US,US-AL,Montgomery,36109
76.73.178.0/24,US,US-AL,Montgomery,36109
24.192.23.0/24,US,US-AL,Montgomery,36117
50.4.80.0/24,US,US-AL,Montgomery,36117
50.4.101.0/24,US,US-AL,Montgomery,36117
143.59.166.0/24,US,US-AL,Montgomery,36117
67.149.226.0/24,US,US-AL,Montgomery,36117
50.4.81.0/24,US,US-AL,Montgomery,36117
24.35.29.0/24,US,US-AL,Montgomery,36117
96.27.105.0/24,US,US-AL,Montgomery,36117
72.15.104.0/24,US,US-AL,Montgomery,36117
23.28.164.0/24,US,US-AL,Montgomery,36117
143.59.129.0/24,US,US-AL,Montgomery,36117
67.149.192.0/24,US,US-AL,Montgomery,36117
50.4.84.0/22,US,US-AL,Montgomery,36117
50.4.88.0/22,US,US-AL,Montgomery,36117
76.73.132.0/24,US,US-AL,Montgomery,36117
76.73.133.0/24,US,US-AL,Montgomery,36117
76.73.134.0/24,US,US-AL,Montgomery,36117
76.73.135.0/24,US,US-AL,Montgomery,36117
69.1.18.0/24,US,US-AL,Montgomery,36117
24.214.67.0/24,US,US-AL,Montgomery,36117
24.42.179.0/24,US,US-AL,Montgomery,36117
24.42.185.0/24,US,US-AL,Montgomery,36117
24.42.144.0/24,US,US-AL,Montgomery,36117
24.214.147.0/24,US,US-AL,Montgomery,36117
69.73.64.0/24,US,US-AL,Montgomery,36117
143.59.205.0/24,US,US-AL,Montgomery,36117
143.59.203.0/24,US,US-AL,Montgomery,36117
143.59.194.0/24,US,US-AL,Montgomery,36117
143.59.187.0/24,US,US-AL,Montgomery,36117
74.199.63.0/24,US,US-AL,Montgomery,36117
24.214.66.0/24,US,US-AL,Montgomery,36117
24.42.208.0/24,US,US-AL,Montgomery,36117
69.73.6.0/24,US,US-AL,Montgomery,36117
96.27.222.0/24,US,US-AL,Montgomery,36117
24.214.97.0/24,US,US-AL,Montgomery,36117
24.214.6.0/24,US,US-AL,Montgomery,36108
24.96.22.0/24,US,US-AL,Montgomery,36108
74.199.107.0/24,US,US-AL,Montgomery,36108
24.42.166.0/24,US,US-AL,Montgomery,36108
69.73.126.0/24,US,US-AL,Montgomery,36108
24.214.245.0/24,US,US-AL,Montgomery,36108
24.214.88.0/23,US,US-AL,Montgomery,36108
24.214.70.0/24,US,US-AL,Montgomery,36108
24.214.69.0/24,US,US-AL,Montgomery,36108
24.214.30.0/24,US,US-AL,Montgomery,36108
69.1.21.0/24,US,US-AL,Montgomery,36108
24.214.42.0/24,US,US-AL,Montgomery,36108
24.214.52.0/24,US,US-AL,Montgomery,36108
76.73.158.0/24,US,US-AL,Prattville,36067
69.14.246.0/24,US,US-AL,Prattville,36067
69.14.91.0/24,US,US-AL,Prattville,36067
24.214.142.0/24,US,US-AL,Prattville,36067
76.73.140.0/24,US,US-AL,Prattville,36067
76.73.141.0/24,US,US-AL,Prattville,36067
76.73.142.0/24,US,US-AL,Prattville,36067
69.73.41.0/24,US,US-AL,Prattville,36067
24.214.71.0/24,US,US-AL,Prattville,36067
24.214.255.0/24,US,US-AL,Prattville,36067
24.42.130.0/24,US,US-AL,Prattville,36067
24.42.210.0/24,US,US-AL,Prattville,36067
24.96.119.0/24,US,US-AL,Prattville,36067
69.73.100.0/24,US,US-AL,Prattville,36067
24.236.121.0/24,US,US-AL,Prattville,36067
24.214.115.0/24,US,US-AL,Prattville,36067
50.4.235.0/24,US,US-FL,Panama City Beach,32407
50.4.42.0/24,US,US-FL,Panama City Beach,32407
50.4.43.0/24,US,US-FL,Panama City Beach,32407
143.59.123.0/24,US,US-FL,Panama City Beach,32407
50.4.49.0/24,US,US-FL,Panama City Beach,32407
23.28.241.0/24,US,US-FL,Panama City Beach,32407
24.214.137.0/24,US,US-FL,Panama City Beach,32407
24.214.59.0/24,US,US-FL,Panama City Beach,32407
69.73.44.0/24,US,US-FL,Panama City Beach,32407
69.73.45.0/24,US,US-FL,Panama City Beach,32407
69.1.42.0/24,US,US-FL,Panama City Beach,32407
24.96.246.0/24,US,US-FL,Panama City Beach,32407
69.73.66.0/24,US,US-FL,Panama City Beach,32407
64.233.201.0/24,US,US-FL,Panama City Beach,32407
67.149.212.0/22,US,US-FL,Panama City Beach,32407
50.4.128.0/24,US,US-FL,Panama City Beach,32407
69.73.49.0/24,US,US-FL,Panama City Beach,32407
69.73.52.0/24,US,US-FL,Panama City Beach,32407
24.96.39.0/24,US,US-FL,Panama City Beach,32407
24.96.43.0/24,US,US-FL,Panama City Beach,32407
24.236.74.0/23,US,US-FL,Panama City Beach,32407
69.73.32.0/24,US,US-FL,Panama City Beach,32407
24.35.35.0/24,US,US-FL,Panama City Beach,32407
143.59.13.0/24,US,US-FL,Panama City Beach,32407
143.59.243.0/24,US,US-FL,Panama City Beach,32407
143.59.104.0/24,US,US-FL,Panama City Beach,32407
24.35.12.0/24,US,US-FL,Panama City Beach,32407
67.149.210.0/24,US,US-FL,Panama City Beach,32407
69.73.40.0/24,US,US-FL,Panama City Beach,32407
50.4.129.0/24,US,US-FL,Panama City Beach,32407
23.28.248.0/23,US,US-FL,Panama City Beach,32407
67.149.20.0/24,US,US-FL,Panama City Beach,32407
67.149.21.0/24,US,US-FL,Panama City Beach,32407
24.96.212.0/24,US,US-FL,Panama City Beach,32407
69.73.42.0/24,US,US-FL,Panama City Beach,32407
69.73.43.0/24,US,US-FL,Panama City Beach,32407
24.214.241.0/24,US,US-FL,Panama City Beach,32407
69.73.26.0/24,US,US-FL,Panama City Beach,32407
69.73.118.0/24,US,US-FL,Lynn Haven,32444
69.73.119.0/24,US,US-FL,Lynn Haven,32444
69.73.120.0/24,US,US-FL,Lynn Haven,32444
74.199.56.0/24,US,US-FL,Lynn Haven,32444
24.96.29.0/24,US,US-FL,Lynn Haven,32444
24.96.30.0/24,US,US-FL,Lynn Haven,32444
23.28.198.0/24,US,US-FL,Lynn Haven,32444
24.236.84.0/24,US,US-FL,Lynn Haven,32444
24.35.36.0/24,US,US-FL,Lynn Haven,32444
24.35.39.0/24,US,US-FL,Lynn Haven,32444
50.4.132.0/24,US,US-FL,Lynn Haven,32444
24.35.45.0/24,US,US-FL,Lynn Haven,32444
24.214.61.0/24,US,US-FL,Lynn Haven,32444
24.35.20.0/23,US,US-FL,Lynn Haven,32444
24.214.82.0/24,US,US-FL,Lynn Haven,32444
24.214.246.0/24,US,US-FL,Lynn Haven,32444
69.73.110.0/24,US,US-FL,Lynn Haven,32444
24.96.229.0/24,US,US-FL,Lynn Haven,32444
24.35.47.0/24,US,US-FL,Panama City,32401
24.214.58.0/24,US,US-FL,Panama City,32401
24.214.96.0/24,US,US-FL,Panama City,32401
69.1.57.0/24,US,US-FL,Panama City,32401
74.199.20.0/24,US,US-FL,Panama City,32401
24.214.107.0/24,US,US-FL,Panama City,32401
24.214.124.0/24,US,US-FL,Panama City,32401
24.96.223.0/24,US,US-FL,Panama City,32401
69.73.124.0/24,US,US-FL,Panama City,32401
24.236.109.0/24,US,US-FL,Panama City,32401
24.236.65.0/24,US,US-FL,Panama City,32401
24.214.248.0/24,US,US-FL,Panama City,32401
24.35.34.0/24,US,US-FL,Panama City,32401
143.59.111.0/24,US,US-FL,Panama City,32401
24.214.13.0/24,US,US-FL,Panama City,32401
69.73.14.192/26,US,US-FL,Panama City,32401
24.35.40.0/24,US,US-FL,Panama City,32401
24.96.48.0/24,US,US-FL,Panama City,32401
69.14.178.0/23,US,US-FL,Panama City,32401
69.1.55.0/24,US,US-FL,Panama City,32401
69.1.44.0/24,US,US-FL,Panama City,32401
24.214.38.0/24,US,US-FL,Panama City,32401
69.1.56.0/24,US,US-FL,Panama City,32401
69.73.112.0/24,US,US-FL,Panama City,32401
207.98.251.0/24,US,US-FL,Panama City,32401
69.14.189.0/24,US,US-FL,Panama City,32401
143.59.130.0/24,US,US-FL,Panama City,32401
23.28.167.0/24,US,US-FL,Panama City,32401
23.28.168.0/24,US,US-FL,Panama City,32401
24.214.29.0/24,US,US-FL,Panama City,32401
24.214.7.0/24,US,US-FL,Panama City,32401
24.96.112.0/24,US,US-FL,Panama City,32401
24.96.220.0/24,US,US-FL,Panama City,32401
24.96.0.0/24,US,US-FL,Panama City,32401
24.96.1.0/24,US,US-FL,Panama City,32401
69.1.7.0/25,US,US-FL,Panama City,32401
24.96.21.0/24,US,US-FL,Panama City,32401
24.96.69.0/24,US,US-FL,Clearwater,33756
24.214.211.0/24,US,US-FL,Clearwater,33756
24.96.193.0/24,US,US-FL,Clearwater,33756
24.96.70.0/24,US,US-FL,Clearwater,33756
24.96.248.0/24,US,US-FL,Clearwater,33756
24.96.59.0/24,US,US-FL,Clearwater,33756
23.28.233.0/24,US,US-FL,Clearwater,33756
24.96.234.0/24,US,US-FL,Clearwater,33756
24.96.90.0/24,US,US-FL,Clearwater,33756
24.96.115.0/24,US,US-FL,Clearwater,33756
24.96.78.0/24,US,US-FL,Clearwater,33756
24.96.77.0/24,US,US-FL,Clearwater,33756
24.96.100.0/24,US,US-FL,Clearwater,33756
24.96.113.0/24,US,US-FL,Clearwater,33756
24.96.24.0/24,US,US-FL,Clearwater,33756
24.96.114.0/24,US,US-FL,Clearwater,33756
24.96.79.0/24,US,US-FL,Clearwater,33756
24.96.36.0/24,US,US-FL,Clearwater,33756
24.96.71.0/24,US,US-FL,Clearwater,33756
24.96.37.0/24,US,US-FL,Clearwater,33756
24.96.16.0/24,US,US-FL,Clearwater,33756
24.96.38.0/24,US,US-FL,Clearwater,33756
24.96.44.0/24,US,US-FL,Clearwater,33756
24.96.67.0/24,US,US-FL,Clearwater,33756
24.42.165.0/24,US,US-FL,Clearwater,33756
24.96.12.0/24,US,US-FL,Clearwater,33756
69.14.238.0/24,US,US-FL,Clearwater,33756
69.73.92.0/24,US,US-FL,Clearwater,33756
24.192.120.0/24,US,US-FL,Clearwater,33756
24.192.239.0/24,US,US-FL,Clearwater,33756
24.236.97.0/24,US,US-FL,Clearwater,33756
143.59.233.0/24,US,US-FL,Clearwater,33756
143.59.217.0/24,US,US-FL,Clearwater,33756
24.96.76.0/24,US,US-FL,Clearwater,33756
24.35.41.0/24,US,US-FL,Clearwater,33756
24.35.14.0/24,US,US-FL,Clearwater,33756
143.59.93.0/24,US,US-FL,Clearwater,33756
96.27.100.0/24,US,US-FL,Clearwater,33756
67.149.211.0/24,US,US-FL,Palm Harbor,34684
207.98.177.0/24,US,US-FL,Palm Harbor,34684
24.96.123.0/24,US,US-FL,Palm Harbor,34684
24.96.124.0/24,US,US-FL,Palm Harbor,34684
24.96.230.0/24,US,US-FL,Palm Harbor,34684
24.96.49.0/24,US,US-FL,Palm Harbor,34684
69.73.72.0/24,US,US-FL,Palm Harbor,34684
69.73.73.0/24,US,US-FL,Palm Harbor,34684
69.73.74.0/24,US,US-FL,Palm Harbor,34684
69.73.75.0/24,US,US-FL,Palm Harbor,34684
69.73.76.0/24,US,US-FL,Palm Harbor,34684
69.73.77.0/24,US,US-FL,Palm Harbor,34684
69.73.78.0/24,US,US-FL,Palm Harbor,34684
69.73.79.0/24,US,US-FL,Palm Harbor,34684
69.73.80.0/24,US,US-FL,Palm Harbor,34684
69.73.81.0/24,US,US-FL,Palm Harbor,34684
69.73.123.0/24,US,US-FL,Palm Harbor,34684
74.199.95.0/24,US,US-FL,Palm Harbor,34684
143.59.216.0/24,US,US-FL,Palm Harbor,34684
24.35.28.0/24,US,US-FL,Palm Harbor,34684
24.96.105.0/24,US,US-FL,Palm Harbor,34684
50.4.184.0/22,US,US-FL,Largo,33778
207.98.183.0/24,US,US-FL,Largo,33778
24.236.110.0/23,US,US-FL,Largo,33778
24.35.24.0/24,US,US-FL,Largo,33778
23.28.223.0/24,US,US-FL,Largo,33778
23.28.243.0/24,US,US-FL,Largo,33778
24.96.10.0/24,US,US-FL,Largo,33778
24.35.62.0/24,US,US-FL,Largo,33778
50.4.188.0/22,US,US-FL,Largo,33778
207.98.196.0/23,US,US-FL,Largo,33778
207.98.198.0/23,US,US-FL,Largo,33778
24.214.47.0/24,US,US-FL,Largo,33778
24.214.86.0/24,US,US-FL,Largo,33778
24.236.123.0/24,US,US-FL,Largo,33778
24.236.80.0/24,US,US-FL,Largo,33778
24.236.82.0/23,US,US-FL,Largo,33778
24.42.175.0/24,US,US-FL,Largo,33778
24.236.85.0/24,US,US-FL,Largo,33778
207.98.168.0/24,US,US-FL,Largo,33778
207.98.176.0/24,US,US-FL,Largo,33778
24.96.20.0/24,US,US-FL,Largo,33778
24.96.56.0/24,US,US-FL,Largo,33778
216.186.157.0/24,US,US-FL,Largo,33778
143.59.236.0/24,US,US-FL,Largo,33778
143.59.234.0/24,US,US-FL,Largo,33778
24.42.198.0/24,US,US-FL,Largo,33778
143.59.215.0/24,US,US-FL,Largo,33778
24.42.151.0/24,US,US-FL,Largo,33778
24.35.38.0/24,US,US-FL,Largo,33778
23.28.207.0/24,US,US-FL,Largo,33778
67.149.86.0/24,US,US-FL,Largo,33778
50.4.134.0/24,US,US-FL,North Clearwater,33762
64.233.221.0/24,US,US-FL,North Clearwater,33762
72.15.79.0/24,US,US-FL,North Clearwater,33762
50.4.52.0/23,US,US-FL,North Clearwater,33762
24.42.192.0/24,US,US-FL,North Clearwater,33762
24.96.120.0/24,US,US-FL,North Clearwater,33762
207.98.184.0/24,US,US-FL,North Clearwater,33762
24.35.27.0/24,US,US-FL,North Clearwater,33762
143.59.82.0/24,US,US-FL,North Clearwater,33762
23.28.166.0/24,US,US-FL,North Clearwater,33762
143.59.141.0/24,US,US-FL,North Clearwater,33762
69.73.101.0/24,US,US-FL,North Clearwater,33762
24.96.201.0/24,US,US-FL,North Clearwater,33762
24.96.202.0/24,US,US-FL,North Clearwater,33762
24.96.203.0/24,US,US-FL,North Clearwater,33762
24.96.204.0/24,US,US-FL,North Clearwater,33762
24.96.205.0/24,US,US-FL,North Clearwater,33762
24.96.206.0/24,US,US-FL,North Clearwater,33762
24.96.241.0/24,US,US-FL,North Clearwater,33762
24.96.242.0/24,US,US-FL,North Clearwater,33762
69.73.94.0/24,US,US-FL,North Clearwater,33762
24.42.221.0/24,US,US-FL,North Clearwater,33762
69.14.239.0/24,US,US-FL,North Clearwater,33762
24.192.238.0/24,US,US-FL,North Clearwater,33762
96.27.179.0/24,US,US-FL,North Clearwater,33762
143.59.232.0/24,US,US-FL,North Clearwater,33762
143.59.223.0/24,US,US-FL,North Clearwater,33762
24.96.50.0/24,US,US-FL,North Clearwater,33762
23.28.170.0/24,US,US-FL,North Clearwater,33762
24.35.44.0/24,US,US-FL,North Clearwater,33762
143.59.197.0/24,US,US-FL,North Clearwater,33762
74.199.42.0/23,US,US-FL,North Clearwater,33762
24.96.13.0/24,US,US-FL,Saint Petersburg,33711
74.199.76.0/24,US,US-FL,Saint Petersburg,33711
50.4.234.0/24,US,US-FL,Saint Petersburg,33711
96.27.119.0/24,US,US-FL,Saint Petersburg,33711
207.98.174.0/23,US,US-FL,Saint Petersburg,33711
96.27.76.0/22,US,US-FL,Saint Petersburg,33711
74.199.22.0/24,US,US-FL,Saint Petersburg,33711
24.96.46.0/24,US,US-FL,Saint Petersburg,33711
50.4.33.0/24,US,US-FL,Saint Petersburg,33711
207.98.179.0/24,US,US-FL,Saint Petersburg,33711
24.236.88.0/24,US,US-FL,Saint Petersburg,33711
24.236.89.0/24,US,US-FL,Saint Petersburg,33711
24.214.44.0/24,US,US-FL,Saint Petersburg,33711
24.214.49.0/24,US,US-FL,Saint Petersburg,33711
24.192.108.0/23,US,US-FL,Saint Petersburg,33711
24.214.253.0/24,US,US-FL,Saint Petersburg,33711
24.96.3.0/24,US,US-FL,Saint Petersburg,33711
24.96.106.0/24,US,US-FL,Saint Petersburg,33711
24.192.237.0/24,US,US-FL,Saint Petersburg,33711
69.73.90.0/24,US,US-FL,Saint Petersburg,33711
74.199.93.0/24,US,US-FL,Saint Petersburg,33711
143.59.238.0/24,US,US-FL,Saint Petersburg,33711
143.59.237.0/24,US,US-FL,Saint Petersburg,33711
143.59.222.0/24,US,US-FL,Saint Petersburg,33711
24.96.34.0/24,US,US-FL,Saint Petersburg,33711
24.96.27.0/24,US,US-FL,Saint Petersburg,33711
69.73.111.0/24,US,US-FL,Saint Petersburg,33711
24.35.37.0/24,US,US-FL,Saint Petersburg,33711
50.4.177.0/24,US,US-FL,Saint Petersburg,33711
24.192.224.0/23,US,US-FL,Saint Petersburg,33711
72.15.73.0/24,US,US-FL,Saint Petersburg,33711
23.28.214.0/23,US,US-FL,Saint Petersburg,33711
67.149.118.0/23,US,US-FL,Saint Petersburg,33711
96.27.116.0/24,US,US-FL,Saint Petersburg,33711
50.4.38.0/24,US,US-GA,Lanett,36863
24.96.40.0/24,US,US-GA,Lanett,36863
143.59.142.0/24,US,US-GA,Lanett,36863
96.27.214.0/24,US,US-GA,Lanett,36863
24.214.60.0/24,US,US-GA,Lanett,36863
24.96.214.0/24,US,US-GA,Lanett,36863
24.96.217.0/24,US,US-GA,Lanett,36863
96.27.121.0/24,US,US-GA,Lanett,36863
24.214.247.0/24,US,US-GA,Lanett,36863
24.42.154.0/24,US,US-GA,Lanett,36863
24.214.10.0/24,US,US-GA,Lanett,36863
24.214.8.0/24,US,US-GA,Lanett,36863
67.149.81.0/24,US,US-GA,Lanett,36863
69.1.13.0/24,US,US-GA,Lanett,36863
24.214.16.0/24,US,US-GA,Lanett,36863
24.96.215.0/24,US,US-GA,Lanett,36863
74.199.112.0/22,US,US-GA,Columbus,31909
24.96.126.0/24,US,US-GA,Columbus,31909
24.96.127.0/24,US,US-GA,Columbus,31909
24.42.213.0/24,US,US-GA,Columbus,31909
24.96.207.0/24,US,US-GA,Columbus,31909
24.42.171.0/24,US,US-GA,Columbus,31909
24.42.172.0/24,US,US-GA,Columbus,31909
24.42.173.0/24,US,US-GA,Columbus,31909
24.42.174.0/24,US,US-GA,Columbus,31909
24.42.170.0/24,US,US-GA,Columbus,31909
24.42.226.0/23,US,US-GA,Columbus,31909
67.149.204.0/23,US,US-GA,Columbus,31909
143.59.110.0/24,US,US-AL,Madison,35758
24.42.159.0/24,US,US-AL,Madison,35758
24.96.250.0/24,US,US-AL,Madison,35758
24.42.137.0/24,US,US-AL,Madison,35758
24.42.147.0/24,US,US-AL,Madison,35758
24.42.148.0/23,US,US-AL,Madison,35758
24.42.169.0/24,US,US-AL,Madison,35758
24.42.181.0/24,US,US-AL,Madison,35758
24.42.182.0/23,US,US-AL,Madison,35758
24.42.184.0/24,US,US-AL,Madison,35758
24.42.187.0/24,US,US-AL,Madison,35758
24.42.188.0/24,US,US-AL,Madison,35758
24.42.190.0/23,US,US-AL,Madison,35758
24.42.193.0/24,US,US-AL,Madison,35758
24.42.196.0/23,US,US-AL,Madison,35758
24.42.199.0/24,US,US-AL,Madison,35758
24.42.200.0/24,US,US-AL,Madison,35758
24.42.205.0/24,US,US-AL,Madison,35758
24.42.206.0/23,US,US-AL,Madison,35758
24.42.211.0/24,US,US-AL,Madison,35758
24.42.212.0/24,US,US-AL,Madison,35758
24.42.219.0/24,US,US-AL,Madison,35758
24.42.225.0/24,US,US-AL,Madison,35758
24.96.6.0/23,US,US-AL,Madison,35758
24.96.9.0/24,US,US-AL,Madison,35758
24.96.14.0/23,US,US-AL,Madison,35758
24.96.18.0/23,US,US-AL,Madison,35758
24.96.23.0/24,US,US-AL,Madison,35758
24.96.33.0/24,US,US-AL,Madison,35758
24.96.42.0/24,US,US-AL,Madison,35758
24.96.51.0/24,US,US-AL,Madison,35758
24.96.53.0/24,US,US-AL,Madison,35758
24.96.64.0/24,US,US-AL,Madison,35758
24.96.87.0/24,US,US-AL,Madison,35758
24.96.98.0/24,US,US-AL,Madison,35758
24.96.148.0/23,US,US-AL,Madison,35758
24.96.180.0/24,US,US-AL,Madison,35758
24.96.183.0/24,US,US-AL,Madison,35758
69.73.33.0/24,US,US-AL,Madison,35758
24.96.117.0/24,US,US-AL,Madison,35758
24.96.118.0/24,US,US-AL,Madison,35758
24.96.122.0/24,US,US-AL,Madison,35758
24.96.125.0/24,US,US-AL,Madison,35758
24.96.130.0/24,US,US-AL,Madison,35758
24.96.151.0/24,US,US-AL,Madison,35758
24.96.155.0/24,US,US-AL,Madison,35758
24.96.157.0/24,US,US-AL,Madison,35758
24.96.158.0/23,US,US-AL,Madison,35758
24.96.160.0/23,US,US-AL,Madison,35758
24.96.171.0/24,US,US-AL,Madison,35758
24.96.172.0/23,US,US-AL,Madison,35758
24.96.175.0/24,US,US-AL,Madison,35758
24.96.181.0/24,US,US-AL,Madison,35758
24.96.184.0/24,US,US-AL,Madison,35758
24.96.197.0/24,US,US-AL,Madison,35758
24.96.222.0/24,US,US-AL,Madison,35758
24.96.228.0/24,US,US-AL,Madison,35758
24.96.232.0/24,US,US-AL,Madison,35758
24.96.235.0/24,US,US-AL,Madison,35758
24.96.244.0/23,US,US-AL,Madison,35758
24.214.11.0/24,US,US-AL,Madison,35758
24.214.15.0/24,US,US-AL,Madison,35758
24.214.18.0/24,US,US-AL,Madison,35758
24.214.22.0/24,US,US-AL,Madison,35758
24.214.23.0/24,US,US-AL,Madison,35758
24.214.54.0/24,US,US-AL,Madison,35758
24.214.76.0/24,US,US-AL,Madison,35758
143.59.114.192/26,US,US-AL,Madison,35758
23.28.128.0/22,US,US-FL,Saint Petersburg,33711
24.236.112.0/24,US,US-FL,Saint Petersburg,33711
24.35.33.0/24,US,US-FL,Saint Petersburg,33711
23.28.132.0/23,US,US-FL,Saint Petersburg,33711
69.73.54.192/26,US,US-FL,Saint Petersburg,33711
143.59.83.0/24,US,US-FL,Saint Petersburg,33711
23.28.245.0/24,US,US-FL,Saint Petersburg,33711
69.1.19.0/24,US,US-FL,Saint Petersburg,33711
50.4.44.0/23,US,US-FL,Saint Petersburg,33711
#OHIO START,,,,
24.214.166.0/23,US,US-OH,Berea,44017
75.118.20.0/22,US,US-OH,Berea,44017
24.214.177.0/24,US,US-OH,Berea,44017
75.118.192.0/21,US,US-OH,Berea,44017
75.76.9.0/24,US,US-OH,Berea,44017
75.76.50.0/24,US,US-OH,Berea,44017
75.76.56.0/24,US,US-OH,Berea,44017
75.118.230.0/23,US,US-OH,Berea,44017
75.118.110.0/23,US,US-OH,Berea,44017
75.118.226.0/23,US,US-OH,Berea,44017
66.29.196.0/24,US,US-OH,Berea,44017
66.29.219.0/24,US,US-OH,Berea,44017
74.81.207.0/24,US,US-OH,Berea,44017
75.118.165.128/25,US,US-OH,Berea,44017
74.81.211.0/24,US,US-OH,Berea,44017
75.76.59.0/24,US,US-OH,Berea,44017
74.81.208.0/24,US,US-OH,Berea,44017
75.76.58.0/24,US,US-OH,Berea,44017
75.76.62.0/24,US,US-OH,Berea,44017
66.29.217.0/24,US,US-OH,Berea,44017
66.29.216.0/24,US,US-OH,Berea,44017
75.118.47.0/24,US,US-OH,Berea,44017
216.186.186.0/24,US,US-OH,Berea,44017
75.76.70.0/24,US,US-OH,Berea,44017
24.214.168.0/24,US,US-OH,Berea,44017
69.171.201.0/24,US,US-OH,Berea,44017
75.76.63.0/24,US,US-OH,Berea,44017
216.186.182.0/24,US,US-OH,Berea,44017
66.29.204.0/23,US,US-OH,Berea,44017
75.76.75.0/24,US,US-OH,Berea,44017
75.76.96.0/24,US,US-OH,Berea,44017
75.76.29.0/24,US,US-OH,Berea,44017
76.73.215.0/24,US,US-OH,Berea,44017
75.76.64.0/24,US,US-OH,Berea,44017
75.76.66.0/24,US,US-OH,Berea,44017
75.76.109.0/24,US,US-OH,Berea,44017
76.73.217.0/24,US,US-OH,Berea,44017
76.73.218.0/24,US,US-OH,Berea,44017
75.76.87.0/24,US,US-OH,Berea,44017
75.76.88.0/24,US,US-OH,Berea,44017
75.76.37.0/24,US,US-OH,Berea,44017
75.76.41.0/24,US,US-OH,Berea,44017
75.76.42.0/24,US,US-OH,Berea,44017
76.73.230.0/24,US,US-OH,Berea,44017
76.73.208.0/24,US,US-OH,Berea,44017
76.73.212.0/24,US,US-OH,Berea,44017
66.29.199.0/24,US,US-OH,Berea,44017
66.29.206.0/24,US,US-OH,Berea,44017
23.28.255.64/27,US,US-OH,Berea,44017
64.233.214.112/28,US,US-OH,Berea,44017
64.233.244.0/27,US,US-OH,Berea,44017
64.233.244.128/28,US,US-OH,Berea,44017
64.53.250.16/28,US,US-OH,Berea,44017
64.233.244.64/28,US,US-OH,Berea,44017
23.28.253.128/27,US,US-OH,Berea,44017
24.192.110.0/24,US,US-OH,Berea,44017
75.118.56.0/21,US,US-OH,Berea,44017
75.118.184.0/21,US,US-OH,Berea,44017
75.118.112.0/21,US,US-OH,Berea,44017
24.214.212.0/22,US,US-OH,Berea,44017
65.60.195.0/25,US,US-OH,Berea,44017
75.76.45.0/24,US,US-OH,Berea,44017
75.76.209.0/24,US,US-OH,Berea,44017
75.76.46.0/24,US,US-OH,Berea,44017
75.76.51.0/24,US,US-OH,Berea,44017
75.76.57.0/24,US,US-OH,Berea,44017
75.76.114.0/23,US,US-OH,Berea,44017
23.28.253.0/27,US,US-OH,Berea,44017
64.53.250.32/27,US,US-OH,Berea,44017
69.14.47.0/25,US,US-OH,Berea,44017
216.186.252.0/24,US,US-OH,Berea,44017
75.76.123.0/24,US,US-OH,Berea,44017
75.76.16.0/24,US,US-OH,Berea,44017
96.27.197.0/24,US,US-OH,Berea,44017
216.186.174.0/24,US,US-OH,Berea,44017
75.76.228.0/24,US,US-OH,Berea,44017
75.118.228.0/24,US,US-OH,Berea,44017
216.186.185.0/24,US,US-OH,Berea,44017
76.73.219.0/24,US,US-OH,Berea,44017
75.76.176.0/24,US,US-OH,Berea,44017
75.76.108.0/24,US,US-OH,Berea,44017
75.118.225.0/24,US,US-OH,Berea,44017
96.27.173.0/24,US,US-OH,Berea,44017
96.27.248.0/24,US,US-OH,Berea,44017
216.186.144.0/24,US,US-OH,Berea,44017
216.186.229.0/24,US,US-OH,Berea,44017
69.171.200.0/24,US,US-OH,Berea,44017
216.186.188.0/24,US,US-OH,Berea,44017
24.214.157.0/24,US,US-OH,Berea,44017
75.76.174.0/24,US,US-OH,Berea,44017
216.186.230.0/24,US,US-OH,Berea,44017
75.76.121.128/25,US,US-OH,Berea,44017
216.186.184.0/24,US,US-OH,Berea,44017
75.76.150.0/24,US,US-OH,Berea,44017
75.76.213.0/24,US,US-OH,Berea,44017
75.76.216.0/24,US,US-OH,Berea,44017
75.76.246.0/24,US,US-OH,Berea,44017
75.76.23.0/25,US,US-OH,Berea,44017
75.76.248.0/25,US,US-OH,Berea,44017
24.35.121.128/25,US,US-OH,Berea,44017
143.59.143.0/24,US,US-OH,Berea,44017
75.76.28.0/24,US,US-OH,Berea,44017
74.81.195.0/24,US,US-OH,Berea,44017
216.186.214.0/23,US,US-OH,Berea,44017
24.214.180.0/24,US,US-OH,Berea,44017
69.171.196.0/22,US,US-OH,Berea,44017
65.60.194.0/24,US,US-OH,Berea,44017
216.186.232.0/21,US,US-OH,Berea,44017
216.186.249.0/24,US,US-OH,Berea,44017
76.73.229.0/24,US,US-OH,Berea,44017
143.59.115.64/26,US,US-OH,Berea,44017
24.96.11.208/29,US,US-OH,Berea,44017
24.96.11.144/28,US,US-OH,Berea,44017
143.59.117.8/29,US,US-OH,Berea,44017
216.186.242.0/24,US,US-OH,Berea,44017
24.214.150.0/24,US,US-OH,Berea,44017
24.214.193.0/24,US,US-OH,Berea,44017
75.76.39.0/24,US,US-OH,Berea,44017
75.118.244.0/22,US,US-OH,Berea,44017
76.73.248.0/21,US,US-OH,Berea,44017
24.214.184.0/24,US,US-OH,Berea,44017
65.60.187.0/24,US,US-OH,Berea,44017
65.60.188.0/24,US,US-OH,Berea,44017
76.73.240.0/22,US,US-OH,Berea,44017
75.118.108.192/26,US,US-OH,Berea,44017
75.118.64.0/21,US,US-OH,North Olmstead,44070
50.4.152.0/21,US,US-OH,North Olmstead,44070
75.118.120.0/21,US,US-OH,North Olmstead,44070
75.118.152.0/21,US,US-OH,North Olmstead,44070
96.27.122.0/23,US,US-OH,North Olmstead,44070
96.27.96.0/23,US,US-OH,North Olmstead,44070
96.27.112.0/23,US,US-OH,North Olmstead,44070
76.73.232.0/23,US,US-OH,North Olmstead,44070
74.199.126.0/23,US,US-OH,North Olmstead,44070
75.76.121.0/25,US,US-OH,North Olmstead,44070
76.73.234.0/23,US,US-OH,North Olmstead,44070
75.76.129.0/24,US,US-OH,North Olmstead,44070
75.76.247.0/24,US,US-OH,North Olmstead,44070
75.118.41.0/24,US,US-OH,North Olmstead,44070
65.60.170.0/24,US,US-OH,North Olmstead,44070
216.186.251.0/24,US,US-OH,North Olmstead,44070
216.186.202.0/24,US,US-OH,North Olmstead,44070
74.81.206.0/24,US,US-OH,North Olmstead,44070
74.81.198.0/24,US,US-OH,North Olmstead,44070
74.81.205.0/24,US,US-OH,North Olmstead,44070
75.76.202.0/24,US,US-OH,North Olmstead,44070
216.186.216.0/23,US,US-OH,North Olmstead,44070
23.28.253.32/27,US,US-OH,North Olmstead,44070
64.233.214.96/28,US,US-OH,North Olmstead,44070
64.233.244.32/28,US,US-OH,North Olmstead,44070
64.233.244.96/27,US,US-OH,North Olmstead,44070
64.53.251.64/28,US,US-OH,North Olmstead,44070
64.53.251.80/28,US,US-OH,North Olmstead,44070
23.28.253.160/27,US,US-OH,North Olmstead,44070
24.96.11.224/27,US,US-OH,North Olmstead,44070
69.47.159.0/26,US,US-OH,North Olmstead,44070
74.81.216.0/23,US,US-OH,North Royalton,44133
75.76.12.0/22,US,US-OH,North Royalton,44133
76.73.244.0/22,US,US-OH,North Royalton,44133
74.81.194.0/24,US,US-OH,North Royalton,44133
66.29.220.0/23,US,US-OH,North Royalton,44133
66.29.222.0/23,US,US-OH,North Royalton,44133
75.76.178.0/24,US,US-OH,North Royalton,44133
24.214.152.0/24,US,US-OH,North Royalton,44133
75.76.112.0/23,US,US-OH,North Royalton,44133
74.81.196.0/24,US,US-OH,North Royalton,44133
74.81.197.0/24,US,US-OH,North Royalton,44133
74.81.204.0/24,US,US-OH,North Royalton,44133
75.76.196.0/23,US,US-OH,North Royalton,44133
66.29.207.0/24,US,US-OH,North Royalton,44133
66.29.212.0/24,US,US-OH,North Royalton,44133
66.29.215.0/24,US,US-OH,North Royalton,44133
66.29.218.0/24,US,US-OH,North Royalton,44133
66.29.200.0/22,US,US-OH,North Royalton,44133
66.29.208.0/22,US,US-OH,North Royalton,44133
66.29.195.0/24,US,US-OH,North Royalton,44133
66.29.197.0/24,US,US-OH,North Royalton,44133
66.29.198.0/24,US,US-OH,North Royalton,44133
74.81.200.0/22,US,US-OH,North Royalton,44133
23.28.253.96/27,US,US-OH,North Royalton,44133
64.233.214.0/27,US,US-OH,North Royalton,44133
64.233.244.144/28,US,US-OH,North Royalton,44133
64.233.244.176/28,US,US-OH,North Royalton,44133
64.233.244.48/28,US,US-OH,North Royalton,44133
23.28.251.64/27,US,US-OH,North Royalton,44133
24.96.11.160/27,US,US-OH,North Royalton,44133
69.47.159.64/26,US,US-OH,North Royalton,44133
74.81.220.0/22,US,US-OH,Cleveland,44128
74.81.192.0/23,US,US-OH,Cleveland,44128
75.118.216.0/21,US,US-OH,Cleveland,44128
75.76.184.0/22,US,US-OH,Cleveland,44128
75.76.180.0/22,US,US-OH,Cleveland,44128
75.76.200.0/23,US,US-OH,Cleveland,44128
23.28.253.64/27,US,US-OH,Cleveland,44128
64.233.244.160/28,US,US-OH,Cleveland,44128
64.53.250.0/28,US,US-OH,Cleveland,44128
64.53.251.96/28,US,US-OH,Cleveland,44128
24.236.102.0/25,US,US-OH,Cleveland,44128
23.28.251.128/27,US,US-OH,Cleveland,44128
67.149.18.0/29,US,US-OH,Cleveland,44128
75.118.128.0/20,US,US-OH,Columbus,43219
75.118.24.0/21,US,US-OH,Columbus,43219
65.60.196.0/22,US,US-OH,Columbus,43219
65.60.172.0/23,US,US-OH,Columbus,43219
65.60.183.0/24,US,US-OH,Columbus,43219
75.76.233.0/24,US,US-OH,Columbus,43219
69.171.194.0/24,US,US-OH,Columbus,43219
75.76.203.0/24,US,US-OH,Columbus,43219
75.76.6.0/23,US,US-OH,Columbus,43219
75.76.22.0/24,US,US-OH,Columbus,43219
64.233.245.200/29,US,US-OH,Columbus,43219
65.60.189.64/27,US,US-OH,Columbus,43219
65.60.189.96/28,US,US-OH,Columbus,43219
50.4.183.160/27,US,US-OH,Columbus,43219
50.4.122.0/27,US,US-OH,Columbus,43219
74.81.219.0/24,US,US-OH,Columbus,43219
74.81.218.0/24,US,US-OH,Columbus,43219
24.214.222.0/23,US,US-OH,Grove City,43123
76.73.213.0/24,US,US-OH,Grove City,43123
75.76.19.0/24,US,US-OH,Grove City,43123
24.214.155.0/24,US,US-OH,Grove City,43123
65.60.132.0/22,US,US-OH,Grove City,43123
65.60.174.0/24,US,US-OH,Grove City,43123
216.186.255.0/24,US,US-OH,Grove City,43123
216.186.149.0/24,US,US-OH,Grove City,43123
75.76.149.0/24,US,US-OH,Grove City,43123
24.214.169.0/24,US,US-OH,Grove City,43123
24.214.209.0/24,US,US-OH,Grove City,43123
24.214.234.0/24,US,US-OH,Grove City,43123
64.233.245.112/28,US,US-OH,Grove City,43123
64.233.245.48/28,US,US-OH,Grove City,43123
75.118.43.32/27,US,US-OH,Grove City,43123
75.118.8.0/21,US,US-OH,Columbus,43214
75.118.96.0/21,US,US-OH,Columbus,43214
75.118.80.0/21,US,US-OH,Columbus,43214
75.118.72.0/21,US,US-OH,Columbus,43214
75.118.44.0/23,US,US-OH,Columbus,43214
75.118.109.0/24,US,US-OH,Columbus,43214
75.76.43.0/24,US,US-OH,Columbus,43214
76.73.198.0/24,US,US-OH,Columbus,43214
75.76.217.0/24,US,US-OH,Columbus,43214
75.76.78.0/24,US,US-OH,Columbus,43214
75.118.48.0/21,US,US-OH,Columbus,43214
75.118.168.0/21,US,US-OH,Columbus,43214
75.76.0.0/24,US,US-OH,Columbus,43214
64.233.222.16/28,US,US-OH,Columbus,43214
64.233.222.80/28,US,US-OH,Columbus,43214
64.233.245.80/28,US,US-OH,Columbus,43214
65.60.190.0/26,US,US-OH,Columbus,43214
50.4.183.0/27,US,US-OH,Columbus,43214
96.27.67.0/25,US,US-OH,Columbus,43214
24.192.153.0/25,US,US-OH,Columbus,43214
24.192.154.64/26,US,US-OH,Columbus,43214
67.149.224.0/23,US,US-OH,Columbus,43214
24.214.210.0/24,US,US-OH,Columbus,43214
75.76.8.0/24,US,US-OH,Columbus,43214
65.60.136.0/21,US,US-OH,Columbus,43214
67.149.196.0/23,US,US-OH,Columbus,43214
65.60.208.0/20,US,US-OH,Columbus,43214
216.186.220.0/24,US,US-OH,Columbus,43214
67.149.218.0/23,US,US-OH,Columbus,43214
75.76.193.0/24,US,US-OH,Columbus,43214
216.186.225.0/24,US,US-OH,Columbus,43214
75.76.179.0/24,US,US-OH,Columbus,43214
216.186.196.0/24,US,US-OH,Columbus,43214
75.76.223.0/24,US,US-OH,Columbus,43214
75.76.106.0/24,US,US-OH,Columbus,43214
75.118.162.0/24,US,US-OH,Columbus,43214
75.76.124.0/24,US,US-OH,Columbus,43214
96.27.188.0/22,US,US-OH,Columbus,43214
75.118.166.0/23,US,US-OH,Columbus,43214
76.73.225.0/24,US,US-OH,Columbus,43214
75.76.230.0/23,US,US-OH,Columbus,43214
64.233.222.112/28,US,US-OH,Columbus,43214
64.233.222.176/28,US,US-OH,Columbus,43214
64.233.245.128/27,US,US-OH,Columbus,43214
64.233.245.192/29,US,US-OH,Columbus,43214
75.118.43.0/28,US,US-OH,Columbus,43214
75.118.43.16/28,US,US-OH,Columbus,43214
96.27.183.192/27,US,US-OH,Columbus,43214
69.47.159.192/26,US,US-OH,Columbus,43214
64.233.212.224/27,US,US-OH,Columbus,43214
64.233.212.48/28,US,US-OH,Columbus,43214
24.192.64.0/21,US,US-OH,Lewis Center,43035
75.76.194.0/24,US,US-OH,Lewis Center,43035
216.186.177.0/24,US,US-OH,Lewis Center,43035
75.76.244.0/24,US,US-OH,Lewis Center,43035
75.76.118.0/24,US,US-OH,Lewis Center,43035
75.118.232.0/21,US,US-OH,Lewis Center,43035
76.73.231.0/24,US,US-OH,Lewis Center,43035
69.14.136.0/21,US,US-OH,Lewis Center,43035
24.214.175.0/24,US,US-OH,Lewis Center,43035
24.214.174.0/24,US,US-OH,Lewis Center,43035
216.186.176.0/24,US,US-OH,Lewis Center,43035
75.76.1.0/24,US,US-OH,Lewis Center,43035
75.76.245.0/24,US,US-OH,Lewis Center,43035
64.233.222.128/27,US,US-OH,Lewis Center,43035
69.14.223.128/26,US,US-OH,Lewis Center,43035
75.76.208.0/24,US,US-OH,Lewis Center,43035
75.118.104.0/22,US,US-OH,Lewis Center,43035
75.76.26.0/24,US,US-OH,Lewis Center,43035
75.76.3.0/24,US,US-OH,Lewis Center,43035
65.60.180.0/24,US,US-OH,Lewis Center,43035
76.73.207.0/24,US,US-OH,Lewis Center,43035
65.60.182.0/24,US,US-OH,Lewis Center,43035
24.214.156.0/24,US,US-OH,Lewis Center,43035
96.27.172.224/27,US,US-OH,Lewis Center,43035
216.186.161.0/24,US,US-OH,Columbus,43206
75.76.122.0/24,US,US-OH,Columbus,43206
74.199.28.0/22,US,US-OH,Columbus,43206
67.149.216.0/23,US,US-OH,Columbus,43206
216.186.170.0/24,US,US-OH,Columbus,43206
67.149.194.0/23,US,US-OH,Columbus,43206
24.214.228.0/24,US,US-OH,Columbus,43206
75.76.119.0/24,US,US-OH,Columbus,43206
75.76.249.0/24,US,US-OH,Columbus,43206
65.60.156.0/23,US,US-OH,Columbus,43206
75.76.145.0/24,US,US-OH,Columbus,43206
216.186.178.0/24,US,US-OH,Columbus,43206
75.76.190.0/24,US,US-OH,Columbus,43206
75.76.198.0/24,US,US-OH,Columbus,43206
216.186.179.0/24,US,US-OH,Columbus,43206
65.60.158.0/23,US,US-OH,Columbus,43206
75.76.125.0/24,US,US-OH,Columbus,43206
75.76.110.0/23,US,US-OH,Columbus,43206
24.214.224.0/24,US,US-OH,Columbus,43206
69.171.193.0/24,US,US-OH,Columbus,43206
216.186.212.0/24,US,US-OH,Columbus,43206
76.73.224.0/24,US,US-OH,Columbus,43206
216.186.210.0/23,US,US-OH,Columbus,43206
75.76.94.0/23,US,US-OH,Columbus,43206
64.233.212.16/28,US,US-OH,Columbus,43206
64.233.222.160/28,US,US-OH,Columbus,43206
64.233.245.208/28,US,US-OH,Columbus,43206
64.233.245.96/28,US,US-OH,Columbus,43206
65.60.171.192/28,US,US-OH,Columbus,43206
75.76.218.128/27,US,US-OH,Columbus,43206
96.27.183.32/27,US,US-OH,Columbus,43206
24.192.153.128/25,US,US-OH,Columbus,43206
67.149.176.0/21,US,US-OH,Pickerington,43147
75.118.200.0/21,US,US-OH,Pickerington,43147
67.149.198.0/23,US,US-OH,Pickerington,43147
75.76.33.0/24,US,US-OH,Pickerington,43147
216.186.163.0/24,US,US-OH,Pickerington,43147
216.186.194.0/24,US,US-OH,Pickerington,43147
75.76.30.0/24,US,US-OH,Pickerington,43147
75.76.195.0/24,US,US-OH,Pickerington,43147
65.60.171.224/27,US,US-OH,Pickerington,43147
69.1.31.192/27,US,US-OH,Pickerington,43147
75.118.176.0/21,US,US-OH,Whitehall,43213
65.60.128.0/22,US,US-OH,Whitehall,43213
65.60.176.0/22,US,US-OH,Whitehall,43213
65.60.240.0/22,US,US-OH,Whitehall,43213
65.60.168.0/23,US,US-OH,Whitehall,43213
24.214.239.0/24,US,US-OH,Whitehall,43213
216.186.204.0/24,US,US-OH,Whitehall,43213
216.186.192.0/24,US,US-OH,Whitehall,43213
216.186.209.0/24,US,US-OH,Whitehall,43213
216.186.213.0/24,US,US-OH,Whitehall,43213
216.186.218.0/24,US,US-OH,Whitehall,43213
75.76.188.0/24,US,US-OH,Whitehall,43213
75.76.250.0/23,US,US-OH,Whitehall,43213
23.28.213.0/27,US,US-OH,Whitehall,43213
64.233.222.64/28,US,US-OH,Whitehall,43213
64.233.245.32/28,US,US-OH,Whitehall,43213
65.60.189.16/28,US,US-OH,Whitehall,43213
75.118.40.208/28,US,US-OH,Whitehall,43213
50.4.82.64/26,US,US-OH,Whitehall,43213
75.76.238.0/24,US,US-OH,Upper Arlington,43220
24.214.172.0/24,US,US-OH,Upper Arlington,43220
65.60.175.0/24,US,US-OH,Upper Arlington,43220
24.214.161.0/24,US,US-OH,Upper Arlington,43220
24.214.192.0/24,US,US-OH,Upper Arlington,43220
75.118.0.0/22,US,US-OH,Upper Arlington,43220
75.118.32.0/21,US,US-OH,Upper Arlington,43220
24.214.196.0/24,US,US-OH,Upper Arlington,43220
67.149.184.0/21,US,US-OH,Upper Arlington,43220
216.186.241.0/24,US,US-OH,Upper Arlington,43220
76.73.220.0/24,US,US-OH,Upper Arlington,43220
75.76.172.0/24,US,US-OH,Upper Arlington,43220
24.214.151.0/24,US,US-OH,Upper Arlington,43220
24.214.197.0/24,US,US-OH,Upper Arlington,43220
75.76.229.0/24,US,US-OH,Upper Arlington,43220
65.60.184.0/24,US,US-OH,Upper Arlington,43220
75.118.46.0/24,US,US-OH,Upper Arlington,43220
65.60.186.0/24,US,US-OH,Upper Arlington,43220
75.76.206.0/24,US,US-OH,Upper Arlington,43220
24.214.171.0/24,US,US-OH,Upper Arlington,43220
69.171.204.0/24,US,US-OH,Upper Arlington,43220
216.186.198.0/24,US,US-OH,Upper Arlington,43220
75.76.68.0/24,US,US-OH,Upper Arlington,43220
75.76.86.0/24,US,US-OH,Upper Arlington,43220
75.76.97.0/24,US,US-OH,Upper Arlington,43220
75.76.146.0/24,US,US-OH,Upper Arlington,43220
76.73.226.0/24,US,US-OH,Upper Arlington,43220
76.73.228.0/24,US,US-OH,Upper Arlington,43220
75.76.189.0/24,US,US-OH,Upper Arlington,43220
75.76.85.0/24,US,US-OH,Upper Arlington,43220
216.186.193.0/24,US,US-OH,Upper Arlington,43220
216.186.201.0/24,US,US-OH,Upper Arlington,43220
216.186.240.0/24,US,US-OH,Upper Arlington,43220
216.186.248.0/24,US,US-OH,Upper Arlington,43220
64.233.222.192/27,US,US-OH,Upper Arlington,43220
64.233.222.32/28,US,US-OH,Upper Arlington,43220
64.233.245.160/28,US,US-OH,Upper Arlington,43220
64.233.245.176/28,US,US-OH,Upper Arlington,43220
65.60.190.64/27,US,US-OH,Upper Arlington,43220
96.27.183.160/27,US,US-OH,Upper Arlington,43220
50.4.183.32/27,US,US-OH,Upper Arlington,43220
67.149.208.160/27,US,US-OH,Upper Arlington,43220
50.4.82.128/26,US,US-OH,Upper Arlington,43220
24.236.114.0/26,US,US-OH,Upper Arlington,43220
75.118.240.0/22,US,US-OH,Upper Arlington,43220
75.76.52.0/22,US,US-OH,Upper Arlington,43220
75.76.18.0/24,US,US-OH,Upper Arlington,43220
75.76.2.0/24,US,US-OH,Upper Arlington,43220
24.214.165.0/24,US,US-OH,Upper Arlington,43220
216.186.222.0/24,US,US-OH,Upper Arlington,43220
24.214.195.0/24,US,US-OH,Upper Arlington,43220
24.214.159.0/24,US,US-OH,Upper Arlington,43220
75.76.93.0/24,US,US-OH,Upper Arlington,43220
24.214.225.0/24,US,US-OH,Upper Arlington,43220
75.118.224.0/24,US,US-OH,Upper Arlington,43220
76.73.216.0/24,US,US-OH,Upper Arlington,43220
75.118.160.0/24,US,US-OH,Upper Arlington,43220
75.76.99.0/24,US,US-OH,Upper Arlington,43220
75.76.17.0/24,US,US-OH,Upper Arlington,43220
75.76.67.0/24,US,US-OH,Upper Arlington,43220
216.186.169.0/24,US,US-OH,Upper Arlington,43220
216.186.183.0/24,US,US-OH,Upper Arlington,43220
216.186.244.0/24,US,US-OH,Upper Arlington,43220
24.214.164.0/24,US,US-OH,Upper Arlington,43220
75.76.20.0/23,US,US-OH,Upper Arlington,43220
75.76.60.0/23,US,US-OH,Upper Arlington,43220
75.118.229.0/24,US,US-OH,Upper Arlington,43220
64.233.212.32/28,US,US-OH,Upper Arlington,43220
96.27.183.0/27,US,US-OH,Upper Arlington,43220
96.27.155.224/27,US,US-OH,Upper Arlington,43220
65.60.200.0/22,US,US-OH,Columbus,43213
65.60.204.0/22,US,US-OH,Columbus,43213
74.199.16.0/22,US,US-OH,Columbus,43213
75.76.204.0/24,US,US-OH,Columbus,43213
65.60.224.0/20,US,US-OH,Columbus,43213
75.76.225.0/24,US,US-OH,Columbus,43213
75.118.144.0/21,US,US-OH,Columbus,43213
76.73.209.0/24,US,US-OH,Columbus,43213
76.73.196.0/23,US,US-OH,Columbus,43213
76.73.223.0/24,US,US-OH,Columbus,43213
76.73.210.0/23,US,US-OH,Columbus,43213
75.76.239.0/24,US,US-OH,Columbus,43213
65.60.190.128/26,US,US-OH,Columbus,43213
75.76.120.64/27,US,US-OH,Columbus,43213
75.118.4.0/22,US,US-OH,Columbus,43228
75.118.208.0/21,US,US-OH,Columbus,43228
65.60.248.0/21,US,US-OH,Columbus,43228
65.60.152.0/22,US,US-OH,Columbus,43228
75.76.248.128/25,US,US-OH,Columbus,43228
143.59.164.0/24,US,US-OH,Columbus,43228
75.76.141.0/24,US,US-OH,Columbus,43228
69.171.202.0/24,US,US-OH,Columbus,43228
75.76.25.0/24,US,US-OH,Columbus,43228
65.60.191.0/24,US,US-OH,Columbus,43228
69.171.195.0/24,US,US-OH,Columbus,43228
75.76.5.0/24,US,US-OH,Columbus,43228
24.214.170.0/24,US,US-OH,Columbus,43228
65.60.189.32/27,US,US-OH,Columbus,43228
76.73.195.160/27,US,US-OH,Columbus,43228
66.29.193.0/24,US,US-OH,Valleyview,43204
65.60.244.0/22,US,US-OH,Valleyview,43204
24.214.194.0/24,US,US-OH,Valleyview,43204
24.214.163.0/24,US,US-OH,Valleyview,43204
75.76.27.0/24,US,US-OH,Valleyview,43204
75.76.24.0/24,US,US-OH,Valleyview,43204
65.60.185.0/24,US,US-OH,Valleyview,43204
65.60.181.0/24,US,US-OH,Valleyview,43204
75.118.16.0/22,US,US-OH,Valleyview,43204
65.60.144.0/21,US,US-OH,Valleyview,43204
75.118.248.0/21,US,US-OH,Valleyview,43204
216.186.223.0/24,US,US-OH,Valleyview,43204
75.118.161.0/24,US,US-OH,Valleyview,43204
24.214.162.0/24,US,US-OH,Valleyview,43204
216.186.200.0/24,US,US-OH,Valleyview,43204
216.186.219.0/24,US,US-OH,Valleyview,43204
216.186.195.0/24,US,US-OH,Valleyview,43204
216.186.199.0/24,US,US-OH,Valleyview,43204
23.28.213.32/27,US,US-OH,Valleyview,43204
64.233.222.224/27,US,US-OH,Valleyview,43204
65.60.190.192/27,US,US-OH,Valleyview,43204
23.28.230.16/28,US,US-OH,Valleyview,43204
50.4.122.128/26,US,US-OH,Valleyview,43204
75.76.234.0/23,US,US-OH,Valleyview,43204
216.186.166.0/24,US,US-OH,Valleyview,43204
216.186.168.0/24,US,US-OH,Valleyview,43204
75.76.226.0/24,US,US-OH,Valleyview,43204
65.60.192.0/23,US,US-OH,Valleyview,43204
216.186.173.0/24,US,US-OH,Valleyview,43204
66.29.213.0/24,US,US-OH,Valleyview,43204
66.29.214.0/24,US,US-OH,Valleyview,43204
74.81.212.0/23,US,US-OH,Valleyview,43204
75.76.236.0/24,US,US-OH,Valleyview,43204
24.214.158.0/24,US,US-OH,Valleyview,43204
24.214.173.0/24,US,US-OH,Valleyview,43204
75.76.65.0/24,US,US-OH,Valleyview,43204
65.60.160.0/21,US,US-OH,Columbus,43081
75.118.88.0/21,US,US-OH,Columbus,43081
216.186.187.0/24,US,US-OH,Columbus,43081
75.76.242.0/23,US,US-OH,Columbus,43081
75.76.212.0/24,US,US-OH,Columbus,43081
75.76.220.0/23,US,US-OH,Columbus,43081
24.214.179.0/24,US,US-OH,Columbus,43081
75.118.164.0/24,US,US-OH,Columbus,43081
64.233.245.224/27,US,US-OH,Columbus,43081
65.60.189.0/28,US,US-OH,Columbus,43081
50.4.183.128/27,US,US-OH,Columbus,43081
74.81.209.0/24,US,US-OH,Columbus,43081
74.81.214.0/24,US,US-OH,Columbus,43081
#MICHIGAN START,,,,
23.28.236.0/23,US,US-MI,Concord,49237
24.192.226.0/23,US,US-MI,Concord,49237
24.192.228.0/24,US,US-MI,Concord,49237
74.199.36.0/24,US,US-MI,Concord,49237
74.199.38.0/24,US,US-MI,Concord,49237
74.199.41.0/24,US,US-MI,Concord,49237
23.28.246.0/24,US,US-MI,Concord,49237
96.27.199.0/24,US,US-MI,Concord,49237
50.4.98.0/23,US,US-MI,Concord,49237
50.4.96.0/24,US,US-MI,Concord,49237
50.4.130.0/24,US,US-MI,Concord,49237
69.14.242.0/24,US,US-MI,Concord,49237
69.14.211.0/24,US,US-MI,Concord,49237
69.14.88.0/24,US,US-MI,Concord,49237
143.59.184.0/23,US,US-MI,Concord,49237
74.199.21.128/25,US,US-MI,Concord,49237
143.59.11.0/24,US,US-MI,Concord,49237
24.42.209.0/24,US,US-MI,Concord,49237
50.4.54.0/24,US,US-MI,Concord,49237
24.214.25.0/24,US,US-MI,Concord,49237
23.28.195.0/24,US,US-MI,Concord,49237
64.233.225.64/27,US,US-MI,Concord,49237
23.28.193.64/27,US,US-MI,Concord,49237
64.233.225.96/27,US,US-MI,Concord,49237
23.28.0.0/20,US,US-MI,Dimondale,48821
23.28.16.0/20,US,US-MI,Dimondale,48821
23.28.32.0/20,US,US-MI,Dimondale,48821
23.28.171.0/24,US,US-MI,Dimondale,48821
143.59.125.0/24,US,US-MI,Dimondale,48821
24.192.121.0/24,US,US-MI,Dimondale,48821
50.4.46.0/24,US,US-MI,Dimondale,48821
23.28.120.0/22,US,US-MI,Dimondale,48821
74.199.32.0/22,US,US-MI,Dimondale,48821
24.236.108.0/24,US,US-MI,Dimondale,48821
24.96.41.0/24,US,US-MI,Dimondale,48821
143.59.72.0/24,US,US-MI,Dimondale,48821
143.59.79.0/24,US,US-MI,Dimondale,48821
216.186.138.0/24,US,US-MI,Dimondale,48821
23.28.176.0/21,US,US-MI,Dimondale,48821
67.149.238.0/23,US,US-MI,Dimondale,48821
64.233.224.0/24,US,US-MI,Dimondale,48821
23.28.193.16/28,US,US-MI,Dimondale,48821
75.76.218.96/27,US,US-MI,Dimondale,48821
24.236.102.128/25,US,US-MI,Dimondale,48821
69.14.208.0/23,US,US-MI,Dimondale,48821
170.103.0.0/18,US,US-MI,Dimondale,48821
64.233.225.128/25,US,US-MI,Dimondale,48821
64.233.228.128/26,US,US-MI,Dimondale,48821
23.28.193.32/27,US,US-MI,Dimondale,48821
96.27.67.128/25,US,US-MI,Dimondale,48821
96.27.72.224/27,US,US-MI,Dimondale,48821
96.27.250.224/29,US,US-MI,Dimondale,48821
96.27.250.232/29,US,US-MI,Dimondale,48821
96.27.250.240/29,US,US-MI,Dimondale,48821
96.27.250.248/29,US,US-MI,Dimondale,48821
207.98.163.0/24,US,US-MI,Dimondale,48821
23.28.184.0/22,US,US-MI,Dimondale,48821
67.149.84.0/23,US,US-MI,Dimondale,48821
23.28.174.0/23,US,US-MI,Dimondale,48821
23.28.162.0/23,US,US-MI,Dimondale,48821
74.199.24.0/23,US,US-MI,Dimondale,48821
50.4.178.0/23,US,US-MI,Dimondale,48821
74.199.46.0/23,US,US-MI,Dimondale,48821
74.199.44.0/23,US,US-MI,Dimondale,48821
96.27.249.0/24,US,US-MI,Dimondale,48821
69.14.92.0/24,US,US-MI,Dimondale,48821
24.42.218.0/26,US,US-MI,Dimondale,48821
69.14.118.0/23,US,US-MI,Allen Park,48101
69.14.192.0/22,US,US-MI,Allen Park,48101
67.149.200.0/22,US,US-MI,Allen Park,48101
67.149.136.0/22,US,US-MI,Allen Park,48101
69.14.40.0/22,US,US-MI,Allen Park,48101
69.14.12.0/22,US,US-MI,Allen Park,48101
24.192.48.0/22,US,US-MI,Allen Park,48101
24.192.4.0/22,US,US-MI,Allen Park,48101
24.192.16.0/22,US,US-MI,Allen Park,48101
24.35.51.0/24,US,US-MI,Allen Park,48101
69.14.228.0/23,US,US-MI,Allen Park,48101
24.35.48.0/24,US,US-MI,Allen Park,48101
64.233.216.32/28,US,US-MI,Allen Park,48101
64.233.217.48/28,US,US-MI,Allen Park,48101
69.14.231.32/27,US,US-MI,Allen Park,48101
69.14.188.0/27,US,US-MI,Allen Park,48101
69.14.188.32/27,US,US-MI,Allen Park,48101
69.14.96.0/21,US,US-MI,Allen Park,48101
50.4.0.0/20,US,US-MI,Allen Park,48101
69.14.56.0/22,US,US-MI,Allen Park,48101
69.14.60.0/22,US,US-MI,Allen Park,48101
24.236.68.0/24,US,US-MI,Allen Park,48101
50.4.17.0/24,US,US-MI,Allen Park,48101
67.149.117.0/24,US,US-MI,Allen Park,48101
67.149.9.0/24,US,US-MI,Allen Park,48101
23.28.160.0/24,US,US-MI,Allen Park,48101
69.1.53.0/24,US,US-MI,Allen Park,48101
64.233.242.128/27,US,US-MI,Allen Park,48101
96.27.182.96/27,US,US-MI,Allen Park,48101
143.59.9.96/27,US,US-MI,Allen Park,48101
23.28.64.0/19,US,US-MI,Canton,48187
24.35.26.0/24,US,US-MI,Canton,48187
23.28.157.0/24,US,US-MI,Canton,48187
64.233.242.96/27,US,US-MI,Canton,48187
67.149.82.0/26,US,US-MI,Canton,48187
67.149.152.0/21,US,US-MI,Centerline,48015
74.199.0.0/20,US,US-MI,Centerline,48015
50.4.112.0/21,US,US-MI,Centerline,48015
96.27.56.0/21,US,US-MI,Centerline,48015
23.28.169.0/24,US,US-MI,Centerline,48015
74.199.39.0/24,US,US-MI,Centerline,48015
64.233.192.64/27,US,US-MI,Centerline,48015
69.14.231.0/27,US,US-MI,Centerline,48015
69.14.231.80/28,US,US-MI,Centerline,48015
23.28.240.0/26,US,US-MI,Centerline,48015
96.27.24.0/21,US,US-MI,Centerline,48015
69.14.72.0/21,US,US-MI,Centerline,48015
24.192.128.0/21,US,US-MI,Centerline,48015
24.192.136.0/21,US,US-MI,Centerline,48015
24.192.144.0/21,US,US-MI,Centerline,48015
24.35.32.0/24,US,US-MI,Centerline,48015
24.192.155.0/25,US,US-MI,Centerline,48015
64.233.242.0/27,US,US-MI,Centerline,48015
69.14.191.32/27,US,US-MI,Centerline,48015
69.14.188.128/25,US,US-MI,Centerline,48015
67.149.240.0/21,US,US-MI,Dearborn,48124
74.199.72.0/22,US,US-MI,Dearborn,48124
50.4.208.0/20,US,US-MI,Dearborn,48124
69.14.232.0/22,US,US-MI,Dearborn,48124
67.149.32.0/21,US,US-MI,Dearborn,48124
69.14.116.0/23,US,US-MI,Dearborn,48124
69.14.243.0/24,US,US-MI,Dearborn,48124
64.233.242.160/28,US,US-MI,Dearborn,48124
69.14.191.0/27,US,US-MI,Dearborn,48124
69.14.231.64/28,US,US-MI,Dearborn,48124
69.14.188.96/27,US,US-MI,Dearborn,48124
76.73.145.32/27,US,US-MI,Dearborn,48124
143.59.16.0/20,US,US-MI,Dearborn,48124
69.14.89.0/24,US,US-MI,Dearborn,48124
143.59.244.0/22,US,US-MI,Dearborn,48124
64.233.215.0/27,US,US-MI,Dearborn,48124
23.28.48.0/20,US,US-MI,Livonia,48150
23.28.238.0/24,US,US-MI,Livonia,48150
23.28.96.0/20,US,US-MI,Livonia,48150
24.192.12.0/22,US,US-MI,Livonia,48150
24.192.30.0/23,US,US-MI,Livonia,48150
50.4.131.0/24,US,US-MI,Livonia,48150
96.27.245.0/24,US,US-MI,Livonia,48150
69.14.247.0/24,US,US-MI,Livonia,48150
50.4.133.0/24,US,US-MI,Livonia,48150
23.28.190.0/23,US,US-MI,Livonia,48150
69.14.160.0/24,US,US-MI,Livonia,48150
69.14.230.0/24,US,US-MI,Livonia,48150
24.96.240.0/24,US,US-MI,Livonia,48150
24.192.229.0/24,US,US-MI,Livonia,48150
96.27.213.0/24,US,US-MI,Livonia,48150
143.59.70.0/24,US,US-MI,Livonia,48150
67.149.8.0/24,US,US-MI,Livonia,48150
69.73.99.0/24,US,US-MI,Livonia,48150
74.199.50.0/24,US,US-MI,Livonia,48150
24.35.25.0/24,US,US-MI,Livonia,48150
24.35.46.0/24,US,US-MI,Livonia,48150
143.59.140.0/24,US,US-MI,Livonia,48150
69.14.220.0/24,US,US-MI,Livonia,48150
64.233.217.192/27,US,US-MI,Livonia,48150
64.233.217.64/28,US,US-MI,Livonia,48150
64.233.217.80/28,US,US-MI,Livonia,48150
69.14.191.96/27,US,US-MI,Livonia,48150
67.149.82.64/26,US,US-MI,Livonia,48150
96.27.101.32/27,US,US-MI,Livonia,48150
69.14.168.0/21,US,US-MI,Livonia,48150
69.14.104.0/21,US,US-MI,Livonia,48150
69.14.48.0/21,US,US-MI,Livonia,48150
23.28.200.0/24,US,US-MI,Livonia,48150
67.149.83.0/24,US,US-MI,Livonia,48150
69.1.35.0/24,US,US-MI,Livonia,48150
67.149.25.0/24,US,US-MI,Livonia,48150
24.192.22.0/24,US,US-MI,Livonia,48150
24.192.124.0/24,US,US-MI,Livonia,48150
69.14.93.0/24,US,US-MI,Livonia,48150
69.14.221.0/24,US,US-MI,Livonia,48150
96.27.196.0/24,US,US-MI,Livonia,48150
23.28.203.0/24,US,US-MI,Livonia,48150
74.199.62.0/24,US,US-MI,Livonia,48150
24.96.93.0/24,US,US-MI,Livonia,48150
74.199.120.0/22,US,US-MI,Livonia,48150
96.27.127.0/24,US,US-MI,Livonia,48150
96.27.98.0/24,US,US-MI,Livonia,48150
143.59.67.0/24,US,US-MI,Livonia,48150
143.59.71.0/24,US,US-MI,Livonia,48150
143.59.73.0/24,US,US-MI,Livonia,48150
67.149.116.0/24,US,US-MI,Livonia,48150
67.149.10.0/24,US,US-MI,Livonia,48150
23.28.232.0/24,US,US-MI,Livonia,48150
96.27.99.0/24,US,US-MI,Livonia,48150
50.4.97.0/24,US,US-MI,Livonia,48150
64.53.174.0/24,US,US-MI,Livonia,48150
74.199.92.0/24,US,US-MI,Livonia,48150
24.214.48.0/24,US,US-MI,Livonia,48150
67.149.30.0/24,US,US-MI,Livonia,48150
64.233.215.96/27,US,US-MI,Livonia,48150
96.27.182.0/27,US,US-MI,Livonia,48150
24.214.230.192/26,US,US-MI,Northville,48167
50.4.160.0/20,US,US-MI,Northville,48167
143.59.100.128/26,US,US-MI,Northville,48167
143.59.100.192/26,US,US-MI,Northville,48167
64.233.215.64/28,US,US-MI,Northville,48167
64.233.217.96/28,US,US-MI,Northville,48167
24.214.104.0/25,US,US-MI,Redford,48239
23.28.112.0/21,US,US-MI,Redford,48239
69.14.64.0/22,US,US-MI,Redford,48239
64.233.197.0/24,US,US-MI,Redford,48239
69.14.244.0/23,US,US-MI,Redford,48239
69.14.161.0/24,US,US-MI,Redford,48239
24.236.107.0/24,US,US-MI,Redford,48239
24.35.15.0/24,US,US-MI,Redford,48239
24.192.1.0/24,US,US-MI,Redford,48239
74.199.94.0/24,US,US-MI,Redford,48239
23.28.156.0/24,US,US-MI,Redford,48239
96.27.207.0/24,US,US-MI,Redford,48239
96.27.174.0/24,US,US-MI,Redford,48239
143.59.14.0/24,US,US-MI,Redford,48239
143.59.69.0/24,US,US-MI,Redford,48239
143.59.86.0/24,US,US-MI,Redford,48239
96.27.65.0/24,US,US-MI,Redford,48239
69.14.213.0/24,US,US-MI,Redford,48239
74.199.59.0/24,US,US-MI,Redford,48239
24.35.30.0/24,US,US-MI,Redford,48239
143.59.139.0/24,US,US-MI,Redford,48239
50.4.100.0/24,US,US-MI,Redford,48239
64.233.233.160/27,US,US-MI,Redford,48239
69.14.196.96/27,US,US-MI,Redford,48239
69.14.188.64/27,US,US-MI,Redford,48239
69.47.227.32/27,US,US-MI,Clinton Township,48035
24.192.160.0/21,US,US-MI,Clinton Township,48035
24.192.168.0/21,US,US-MI,Clinton Township,48035
69.14.128.0/21,US,US-MI,Clinton Township,48035
69.14.0.0/21,US,US-MI,Clinton Township,48035
24.192.176.0/21,US,US-MI,Clinton Township,48035
24.192.184.0/21,US,US-MI,Clinton Township,48035
69.14.80.0/21,US,US-MI,Clinton Township,48035
74.199.64.0/21,US,US-MI,Clinton Township,48035
24.192.40.0/21,US,US-MI,Clinton Township,48035
76.73.128.0/24,US,US-MI,Clinton Township,48035
64.233.216.128/26,US,US-MI,Clinton Township,48035
64.233.242.32/28,US,US-MI,Clinton Township,48035
69.14.196.32/27,US,US-MI,Clinton Township,48035
23.28.193.128/26,US,US-MI,Clinton Township,48035
50.4.240.0/20,US,US-MI,Clinton Township,48035
24.192.208.0/20,US,US-MI,Clinton Township,48035
50.4.192.0/20,US,US-MI,Clinton Township,48035
24.192.112.0/21,US,US-MI,Clinton Township,48035
64.233.192.32/27,US,US-MI,Clinton Township,48035
69.14.190.32/27,US,US-MI,Clinton Township,48035
69.14.190.64/26,US,US-MI,Clinton Township,48035
69.14.191.64/27,US,US-MI,Royal Oak,48067
67.149.112.0/22,US,US-MI,Royal Oak,48067
50.4.236.0/22,US,US-MI,Royal Oak,48067
69.14.112.0/22,US,US-MI,Royal Oak,48067
69.14.32.0/22,US,US-MI,Royal Oak,48067
67.149.160.0/20,US,US-MI,Royal Oak,48067
67.149.0.0/21,US,US-MI,Royal Oak,48067
69.14.224.0/22,US,US-MI,Royal Oak,48067
74.199.80.0/22,US,US-MI,Royal Oak,48067
67.149.228.0/22,US,US-MI,Royal Oak,48067
74.199.84.0/22,US,US-MI,Royal Oak,48067
64.233.216.64/26,US,US-MI,Royal Oak,48067
69.14.190.160/27,US,US-MI,Royal Oak,48067
96.27.182.64/27,US,US-MI,Royal Oak,48067
96.27.182.128/27,US,US-MI,Royal Oak,48067
69.47.227.64/27,US,US-MI,Royal Oak,48067
67.149.56.0/21,US,US-MI,Royal Oak,48067
67.149.104.0/22,US,US-MI,Royal Oak,48067
74.199.52.0/22,US,US-MI,Royal Oak,48067
67.149.88.0/21,US,US-MI,Royal Oak,48067
69.14.164.0/22,US,US-MI,Royal Oak,48067
69.14.180.0/22,US,US-MI,Royal Oak,48067
69.14.184.0/22,US,US-MI,Royal Oak,48067
64.233.217.112/28,US,US-MI,Royal Oak,48067
69.14.190.192/26,US,US-MI,Royal Oak,48067
69.14.196.0/27,US,US-MI,Royal Oak,48067
64.53.225.0/26,US,US-MI,Royal Oak,48067
76.73.145.96/27,US,US-MI,Sterling Heights,48310
24.192.192.0/20,US,US-MI,Sterling Heights,48310
69.14.144.0/20,US,US-MI,Sterling Heights,48310
74.199.96.0/21,US,US-MI,Sterling Heights,48310
143.59.252.0/24,US,US-MI,Sterling Heights,48310
69.14.200.0/23,US,US-MI,Sterling Heights,48310
24.35.43.0/24,US,US-MI,Sterling Heights,48310
74.199.48.0/24,US,US-MI,Sterling Heights,48310
64.233.216.16/28,US,US-MI,Sterling Heights,48310
64.233.217.32/28,US,US-MI,Sterling Heights,48310
64.233.242.48/28,US,US-MI,Sterling Heights,48310
64.233.242.64/28,US,US-MI,Sterling Heights,48310
23.28.193.96/27,US,US-MI,Sterling Heights,48310
23.28.240.128/26,US,US-MI,Sterling Heights,48310
67.149.96.0/21,US,US-MI,Sterling Heights,48310
67.149.40.0/21,US,US-MI,Sterling Heights,48310
67.149.144.0/21,US,US-MI,Sterling Heights,48310
69.1.61.0/24,US,US-MI,Sterling Heights,48310
64.233.216.224/27,US,US-MI,Sterling Heights,48310
96.27.80.0/20,US,US-MI,Trenton,48183
24.192.240.0/21,US,US-MI,Trenton,48183
67.149.220.0/22,US,US-MI,Trenton,48183
64.233.213.104/29,US,US-MI,Trenton,48183
64.233.217.136/29,US,US-MI,Trenton,48183
64.233.217.144/28,US,US-MI,Trenton,48183
69.14.196.64/27,US,US-MI,Trenton,48183
50.4.104.0/21,US,US-MI,Troy,48083
69.14.16.0/20,US,US-MI,Troy,48083
69.14.120.0/21,US,US-MI,Troy,48083
67.149.128.0/21,US,US-MI,Troy,48083
64.233.217.160/28,US,US-MI,Troy,48083
64.233.242.192/26,US,US-MI,Troy,48083
96.27.182.32/27,US,US-MI,Troy,48083
76.73.145.128/25,US,US-MI,Troy,48083
24.192.52.0/22,US,US-MI,Troy,48083
24.192.248.0/21,US,US-MI,Troy,48083
69.14.248.0/21,US,US-MI,Troy,48083
64.233.192.0/27,US,US-MI,Troy,48083
67.149.248.0/21,US,US-MI,Shelby Township,48317
143.59.108.0/23,US,US-MI,Shelby Township,48317
50.4.16.0/24,US,US-MI,Shelby Township,48317
96.27.8.0/21,US,US-MI,Shelby Township,48317
96.27.16.0/21,US,US-MI,Shelby Township,48317
69.14.36.0/22,US,US-MI,Shelby Township,48317
23.28.144.0/21,US,US-MI,Shelby Township,48317
50.4.120.0/23,US,US-MI,Shelby Township,48317
24.96.61.0/24,US,US-MI,Shelby Township,48317
143.59.138.0/24,US,US-MI,Shelby Township,48317
50.4.233.0/24,US,US-MI,Shelby Township,48317
64.233.242.80/28,US,US-MI,Shelby Township,48317
69.14.190.0/27,US,US-MI,Shelby Township,48317
69.14.190.128/27,US,US-MI,Shelby Township,48317
24.192.154.0/26,US,US-MI,Shelby Township,48317
96.27.32.0/21,US,US-MI,Shelby Township,48317
96.27.40.0/21,US,US-MI,Shelby Township,48317
96.27.48.0/21,US,US-MI,Shelby Township,48317
69.14.68.0/22,US,US-MI,Shelby Township,48317
67.149.24.0/24,US,US-MI,Shelby Township,48317
23.28.244.0/24,US,US-MI,Shelby Township,48317
64.233.216.192/27,US,US-MI,Shelby Township,48317
143.59.15.192/26,US,US-MI,Shelby Township,48317